Name,Address,Long,Lat,Num Beds
VCU Community Memorial Hospital,"1755 N Mecklenburg Ave, La Crosse, VA 23950",,,206
Augusta Health,,,,242
Bon Secours DePaul Medical Center,"155 Kingsley Ln Suite 100, Norfolk, VA 23505",,,133
Bon Secours Mary Immaculate Hospital,"2 Bernardine Dr, Newport News, VA 23602",-76.5105210244801,37.14413759999999,230
Bon Secours Maryview Medical Center,"3636 High St, Portsmouth, VA 23707",-76.34681406558875,36.836321749999996,352
Carilion New River Valley Medical Center,"2900 Lamb Cir, Christiansburg, VA 24073",,,146
Carilion Roanoke Memorial Hospital,"1906 Belleview Ave SE, Roanoke, VA 24014",-79.94165570672422,37.25197809838547,719
Carilion Tazewell Community Hospital,"141 Ben Bolt Ave, Tazewell, VA 24651",-81.49157267805644,37.125404074851176,56
Catawba Hospital,"5525 Catawba Hospital Dr, Catawba, VA 24070",-80.1097232697664,37.39259025,270
Centra Bedford Memorial Hospital,"1613 Oakwood St, Bedford, VA 24523",-79.5174875626834,37.35204605,145
Centra Lynchburg General Hospital,"1901 Tate Springs Rd, Lynchburg, VA 24501",-79.1719357,37.4159576,629
Centra Southside Community Hospital,"800 Oak St, Farmville, VA 23901",-78.4040613131847,37.30257949999999,86
Chesapeake Regional Medical Center,"736 N Battlefield Blvd, Chesapeake, VA 23320",,,310
Chippenham Hospital,"7101 Jahnke Rd, Richmond, VA 23225",-77.5259599,37.5146311,793
Clinch Valley Medical Center,"6801 Gov George C. Peery Hwy, Richlands, VA 24641",,,170
Fauquier Hospital,"500 Hospital Dr, Warrenton, VA 20186",-77.80865021584924,38.71209605,97
Henrico Doctors' Hospital,"1602 Skipwith Rd, Richmond, VA 23229",-77.5392106,37.6291633,767
Hiram W. Davis Medical Center,"26317 W Washington St, Petersburg, VA 23803",-77.45146470152167,37.209917250000004,84
Inova Alexandria Hospital,"4320 Seminary Rd, Alexandria, VA 22304",-77.10473399085639,38.8223813,334
Inova Fair Oaks Hospital,"3600 Joseph Siewick Dr, Fairfax, VA 22033",-77.38086919754149,38.88475665,182
Inova Fairfax Hospital,"3300 Gallows Rd, Falls Church, VA 22042",,,859
Inova Loudoun Hospital,"44045 Riverside Pkwy, Leesburg, VA 20176",,,267
Inova Mount Vernon Hospital,"2501 Parkers Ln, Alexandria, VA 22306",,,237
John Randolph Medical Center,"411 W Randolph Rd, Hopewell, VA 23860",-77.29117630530347,37.30791405,147
Johnston Memorial Hospital,"16000 Johnston Memorial Dr, Abingdon, VA 24211",,,115
LewisGale Hospital - Alleghany,"1 Arh Ln, Low Moor, VA 24457",-79.88124391538574,37.79205105,110
LewisGale Hospital - Montgomery,"3700 S Main St, Blacksburg, VA 24060",-80.4119087039646,37.187283550000004,88
LewisGale Hospital - Pulaski,"2400 Lee Hwy, Pulaski, VA 24301",-80.75704610110245,37.0687436,92
LewisGale Medical Center,"1900 Electric Rd, Salem, VA 24153",-80.03025485516106,37.263956199999996,365
Lonesome Pine Hospital,"1990 Holton Ave E, Big Stone Gap, VA 24219",-82.75450170877089,36.877012300000004,112
Mary Washington Hospital,"1001 Sam Perry Blvd, Fredericksburg, VA 22401",-77.48381273180576,38.310284800000005,421
Memorial Regional Medical Center,"8260 Atlee Rd, Mechanicsville, VA 23116",-77.4014392,37.6549909,224
Mountain View Regional Hospital,"310 3rd St NE, Norton, VA 24273",-82.62563100405845,36.94401345,98
Norton Community Hospital,"100 15th St NW, Norton, VA 24273",-82.64229890440609,36.933497349999996,78
Novant Health UVA Health System Culpeper Medical Center,"501 Sunset Ln, Culpeper, VA 22701",-78.0132696963412,38.45520655,70
Novant Health UVA Health System Haymarket Medical Center,"15225 Heathcote Blvd, Haymarket, VA 20169",,,60
Novant Health UVA Health System Prince William Medical Center,"8700 Sudley Rd, Manassas, VA 20110",-77.48805041133178,38.7672132,126
Reston Hospital Center,"1850 Town Center Pkwy, Reston, VA 20190",-77.36479123609762,38.96270805,203
Retreat Doctor's Hospital - A Campus of Henrico Doctor's Hospital,"2621 Grove Ave, Richmond, VA 23220",-77.47295265880145,37.55374965,116
Richmond Community Hospital,"1500 N 28th St, Richmond, VA 23223",-77.40691479074074,37.5401185,101
Riverside Regional Medical Center,"500 J Clyde Morris Blvd, Newport News, VA 23601",-76.48275917438272,37.0634177,357
Riverside Tappahannock Hospital,"618 Hospital Rd, Tappahannock, VA 22560",,,67
Riverside Walter Reed Hospital,"7519 Hospital Dr, Gloucester, VA 23061",-76.54233890440022,37.41998465,67
Russell County Hospital,,,,69
Saint Francis Medical Center,,,,130
Saint Mary's Hospital,,,,410
Sentara CarePlex Hospital,"3000 Coliseum Dr, Hampton, VA 23666",-76.39040187437062,37.056504649999994,172
Sentara Halifax Regional Hospital,"2204 Wilborn Ave, South Boston, VA 24592",-78.91420474566902,36.71195555,107
Sentara Leigh Hospital,"830 Kempsville Rd, Norfolk, VA 23502",-76.1898901032284,36.851015950000004,247
Sentara Martha Jefferson Hospital,"500 Martha Jefferson Dr, Charlottesville, VA 22911",,,150
Sentara Norfolk General Hospital,"600 Gresham Dr, Norfolk, VA 23507",-76.30430410438805,36.8616399,527
Sentara Northern Virginia Medical Center,"2300 Opitz Blvd, Woodbridge, VA 22191",-77.28604300007024,38.637085549999995,147
Sentara Obici Hospital,"2800 Godwin Blvd, Suffolk, VA 23434",-76.58098726772738,36.77324385,175
Sentara Princess Anne Hospital,"2025 Glenn Mitchell Dr, Virginia Beach, VA 23456",-76.09768724157303,36.7762186,174
Sentara RMH Medical Center,"2010 Health Campus Dr, Harrisonburg, VA 22801",-78.85597564728357,38.40516905,238
Sentara Virginia Beach General Hospital,"1060 First Colonial Road, Virginia Beach, VA 23454",-76.02625151586022,36.864964,259
Sentara Williamsburg Regional Medical Center,"100 Sentara Cir, Williamsburg, VA 23188",,,145
Smyth County Community Hospital,"245 Medical Park Dr, Marion, VA 24354",-81.48863717225183,36.8513787,153
Southampton Memorial Hospital,"100 Fairview Dr, Franklin, VA 23851",-76.93724901078303,36.69194485,204
Southern Virginia Regional Medical Center,"727 N Main St, Emporia, VA 23847",-77.53764257006387,36.70169405,80
Southside Regional Medical Center,"200 Medical Park Blvd, Petersburg, VA 23805",-77.35951428139832,37.18259005,300
SOVAH Health Danville,"142 S Main St, Danville, VA 24541",-79.4050444657006,36.57750145,342
SOVAH Health Martinsville,"320 Hospital Dr, Martinsville, VA 24112",-79.86713087371484,36.69913895,220
Spotsylvania Regional Medical Center,"4600 Spotsylvania Pkwy, Fredericksburg, VA 22408",,,133
Stafford Hospital,"101 Hospital Center Blvd, Stafford, VA 22554",-77.40704638874043,38.41563305,90
StoneSprings Hospital Center,"24440 Stone Springs Blvd, Dulles, VA 20166",,,124
Twin County Regional Hospital,"200 Hospital Dr, Galax, VA 24333",-80.92406191841765,36.670858499999994,141
University Hospital,,,,612
VCU Medical Center,,,,781
Virginia Hospital Center,"1701 N George Mason Dr, Arlington, VA 22205",-77.1282836,38.8895407,365
Warren Memorial Hospital,"1000 N Shenandoah Ave, Front Royal, VA 22630",-78.19769232885338,38.93103395,166
Winchester Medical Center,"1840 Amherst St, Winchester, VA 22601",-78.18943473110079,39.19627145,455
Wythe County Community Hospital,"600 W Ridge Rd, Wytheville, VA 24382",-81.09693440369114,36.9546656,100
Alaska Native Medical Center,"4315 Diplomacy Dr, Anchorage, AK 99508",-149.80017722898032,61.18277225,174
Alaska Regional Hospital,"2801 Debarr Road, Anchorage, AK 99508",-149.8286313242076,61.21045645,174
Bartlett Regional Hospital,"3260 Hospital Dr, Juneau, AK 99801",-134.46498295128208,58.329258949999996,57
Central Peninsula General Hospital,"250 Hospital Pl, Soldotna, AK 99669",-151.07850281621722,60.49352565,109
Foundation Health Partners Fairbanks Memorial Hospital,"1650 Cowles St, Fairbanks, AK 99701",-147.7402732108773,64.83173225,212
Mat-Su Regional Medical Center,"2500 S Woodworth Loop, Palmer, AK 99645",,,74
Providence Alaska Medical Center,"3200 Providence Dr, Anchorage, AK 99508",-149.82059674184666,61.18841865,401
RMC Stringfellow Memorial Hospital,"301 E 18th St, Anniston, AL 36207",-85.82380499027312,33.668161,125
Andalusia Health,"849 S 3 Notch St, Andalusia, AL 36420",,,83
Athens-Limestone Hospital,,,,66
Baptist Medical Center East,"400 Taylor Rd, Montgomery, AL 36117",-86.17603444768903,32.38793087577623,207
Baptist Medical Center South,,,,380
Bibb Medical Center,"208 Pierson Ave #2918, Centreville, AL 35042",,,156
Brookwood Baptist Medical Center,"2010 Brookwood Medical Center Dr, Birmingham, AL 35209",,,595
Bryan W. Whitfield Memorial Hospital,"105 US-80, Demopolis, AL 36732",-87.77411706053113,32.496313012582824,57
Bullock County Hospital,"102 W Conecuh Ave, Union Springs, AL 36089",-85.71357450093427,32.14623282498443,54
Citizens Baptist Medical Center,"604 Stone Ave, Talladega, AL 35160",-86.09073711271273,33.4404993,98
Clay County Hospital,,,,129
Coosa Valley Medical Center,"315 W Hickory St, Sylacauga, AL 35150",-86.25564905054785,33.1651887,222
Crestwood Medical Center,"1 Hospital Drive Southwest, Huntsville, AL 35801",-86.5727493705092,34.694120999999996,183
Cullman Regional Medical Center,"1912 AL-157, Cullman, AL 35058",-86.80481386048591,34.2012534,145
Dale Medical Center,"126 Hospital Ave, Ozark, AL 36360",-85.6320623498164,31.4511675,89
DCH Regional Medical Center,"809 University Blvd E, Tuscaloosa, AL 35401",-87.52753681434177,33.204164,593
Decatur Morgan Hospital,"1201 7th St SE, Decatur, AL 35601",-86.97139352672316,34.59085815,264
Decatur Morgan Hospital-Parkway Campus,"1874 Beltline Rd SW, Decatur, AL 35603",-87.01596161187197,34.57668685,120
DeKalb Regional Medical Center,"200 Medical Center Dr SW, Fort Payne, AL 35968",-85.75662959548669,34.4412404,115
East Alabama Medical Center,"2000 Pepperell Pkwy, Opelika, AL 36801",-85.40540268421053,32.63807215789474,515
East Alabama Medical Center - Lanier,"1806 44th St, Valley, AL 36854",-85.172747877247,32.82810929193443,187
Fayette Medical Center,,,,167
Flowers Hospital,,,,235
Gadsden Regional Medical Center,"1007 Goodyear Ave, Gadsden, AL 35903",-85.97001426883574,34.0093450804539,271
Grandview Medical Center,,,,402
Greene County Health System,"509 Wilson Ave, Eutaw, AL 35462",-87.89051100528692,32.8429125,92
Helen Keller Hospital,"1300 S Montgomery Ave, Sheffield, AL 35660",-87.70076056923517,34.746119,178
Highlands Medical Center,,,,218
Huntsville Hospital,,,,912
Jackson Hospital,,,,270
Lakeland Community Hospital,"42024 AL-195, Haleyville, AL 35565",,,58
Marshall Medical Center North,"8000 AL-69, Guntersville, AL 35976",-86.3152716,34.3536557,90
Marshall Medical Center South,"2505 US-431, Boaz, AL 35957",-86.16096018427928,34.221401650000004,204
Medical Center Enterprise,"400 N Edwards St, Enterprise, AL 36330",-85.85468880157622,31.318424999999998,99
Medical West,,,,231
Mizell Memorial Hospital,"702 N Main St, Opp, AL 36467",-86.25490030241093,31.2928787,59
Mobile Infirmary Medical Center,"5 Mobile Infirmary Cir, Mobile, AL 36607",-88.07939325749618,30.69599325,669
North Alabama Medical Center,"1701 Veterans Dr, Florence, AL 35630",-87.6403582,34.8078722,233
North Baldwin Infirmary,"1815 Hand Ave, Bay Minette, AL 36507",-87.78495512441062,30.90380695,70
North Mississippi Medical Center - Hamilton,"1256 Military St S, Hamilton, AL 35570",-87.9908673187085,34.12608455,115
Northport Medical Center,"2700 Hospital Dr, Northport, AL 35476",-87.57095112277796,33.2347532,207
Northwest Medical Center,"6323 Georgia Ave NW # 212, Washington, DC 20011",,,71
Prattville Baptist Hospital,"124 S Memorial Dr, Prattville, AL 36067",-86.45235347708427,32.464044900000005,55
Princeton Baptist Medical Center,"701 Princeton Ave SW, Birmingham, AL 35211",-86.84793758297522,33.4974069,309
Providence Hospital,,,,349
Regional Medical Center of Central Alabama,"29 L V Stabler Dr, Greenville, AL 36037",,,57
Riverview Regional Medical Center,"600 S 3rd St, Gadsden, AL 35901",-86.00333987386892,34.004020749999995,281
RMC Anniston,"400 E 10th St, Anniston, AL 36207",-85.823759725,33.6553544,270
Saint Vincent's Birmingham,"810 St Vincents Dr, Birmingham, AL 35205",-86.78806756794808,33.507493249999996,400
Saint Vincent's East,,,,349
Shelby Baptist Medical Center,"1000 1st St N, Alabaster, AL 35007",-86.81296818785188,33.2526682,252
Shoals Hospital,"201 W Avalon Ave, Muscle Shoals, AL 35661",-87.6769365378488,34.74703315,184
South Baldwin Regional Medical Center,"1613 N McKenzie St, Foley, AL 36535",,,112
Southeast Health Medical Center,"1108 Ross Clark Cir, Dothan, AL 36301",-85.36343255478354,31.215827150000003,327
Springhill Medical Center,"3719 Dauphin St, Mobile, AL 36608",-88.13015691580881,30.6847189,209
Thomas Hospital,,,,141
Troy Regional Medical Center,"1330 US-231, Troy, AL 36081",-85.94534750911542,31.78167615,115
UAB Hospital,,,,"1,205"
UAB Hospital Highlands,"1201 11th Ave S, Birmingham, AL 35205",-86.8062572716164,33.49481255,73
USA Health University Hospital,"2451 University Hospital Dr, Mobile, AL 36617",,,149
Vaughan Regional Medical Center,"1015 Medical Center Pkwy, Selma, AL 36701",-87.05590344058078,32.429399599999996,109
Walker Baptist Medical Center,"3400 Hwy 78 E, Jasper, AL 35501",,,259
Wiregrass Medical Center,"1200 W Maple Ave, Geneva, AL 36340",-85.89202133403035,31.0489116,185
Unity Health - Harris Medical Center,"1205 McLain St, Newport, AR 72112",-91.26520820110434,35.608777950000004,121
Arkansas Heart Hospital,,,,112
Arkansas Methodist Medical Center,"900 W Kingshighway, Paragould, AR 72450",,,129
Baptist Health - Little Rock,"9601 Baptist Health Dr, Little Rock, AR 72205",-92.38100358733801,34.743831,734
Baptist Health - North Little Rock,"3333 Springhill Dr, North Little Rock, AR 72117",-92.22273388821685,34.78444895,205
Baptist Health Medical Center Conway,"1555 Exchange Ave, Conway, AR 72032",-92.419364,35.0771032,110
Baptist Health Medical Center-Hot Spring County,"1001 Schneider Dr, Malvern, AR 72104",-92.78571755528573,34.358098049999995,64
Baptist Health-Fort Smith,"1001 Towson Ave, Fort Smith, AR 72901",-94.4209322,35.3840491,343
Baxter Regional Medical Center,,,,212
CHI St. Vincent Hot Springs,,,,229
CHI St. Vincent Infirmary,"2 St Vincent Cir, Little Rock, AR 72205",-92.33870743565777,34.75040245,393
CHI St. Vincent North,"2215 Wildwood Ave, Sherwood, AR 72120",-92.20837420064066,34.8134189,59
Conway Regional Medical Center,"2302 College Ave, Conway, AR 72034",-92.45726561739828,35.08559395,150
Forrest City Medical Center,"1601 New Castle Rd, Forrest City, AR 72335",-90.775137,35.034588,70
Helena Regional Medical Center,"1801 Martin Luther King Jr Dr, Helena, AR 72342",-90.62710977187041,34.510228999999995,127
Jefferson Regional Medical Center,"565 Coal Valley Rd, Jefferson Hills, PA 15025",-79.93344824387502,40.3184899,316
Johnson Regional Medical Center,"1100 E Poplar St, Clarksville, AR 72830",-93.44440436370567,35.46216645,89
Levi Hospital,"300 Prospect Ave, Hot Springs, AR 71901",-93.0571119,34.5100517,53
Medical Center of South Arkansas,"700 W Grove St, El Dorado, AR 71730",-92.67066676847321,33.22087775,131
Mena Regional Health System,"311 Morrow St N, Mena, AR 71953",,,65
Mercy Hospital Fort Smith,"7301 Rogers Ave, Fort Smith, AR 72903",-94.35358042549282,35.3557597,385
Mercy Hospital Northwest Arkansas,"2710 S Rife Medical Ln, Rogers, AR 72758",-94.18336046289184,36.308679049999995,206
National Park Medical Center,"1910 Malvern Ave, Hot Springs, AR 71901",-93.03577989549905,34.4863603,163
NEA Baptist Memorial Hospital,"4800 E Johnson Ave, Jonesboro, AR 72401",-90.63716902101888,35.86593345,204
North Arkansas Regional Medical Center,"620 N Main St, Harrison, AR 72601",-93.10725648979593,36.23582318367347,134
Northwest Medical Center - Bentonville,"3000 Medical Center Pkwy, Bentonville, AR 72712",,,121
Northwest Medical Center - Springdale,"609 W Maple Ave, Springdale, AR 72764",-94.13741560036112,36.180622,300
Ouachita County Medical Center,"638 California Ave SW, Camden, AR 71701",-92.83684645566458,33.575701699999996,82
Saint Mary's Regional Health System,"1808 W Main St, Russellville, AR 72801",-93.14909972264508,35.28422475,157
Saline Memorial Hospital,"1 Medical Park Dr, Benton, AR 72015",-92.58602121888538,34.573669550000005,161
St. Bernards Medical Center,"225 E Washington Ave, Jonesboro, AR 72401",-90.70459886868687,35.83828274747475,353
Unity Health White County Medical Center,"3214 E Race Ave, Searcy, AR 72143",-91.69660718602938,35.251945649999996,272
University of Arkansas for Medical Sciences (UAMS) Medical Center,"4301 W Markham St, Little Rock, AR 72205",-92.31988845744972,34.74824675,505
Wadley Regional Medical Center at Hope,"2001 S Main St, Hope, AR 71801",-93.58407907556622,33.648145400000004,79
Washington Regional Medical Center,"3215 N Northhills Blvd, Fayetteville, AR 72703",-94.1597641,36.1102363,320
White River Medical Center,"1710 Harrison St, Batesville, AR 72501",-91.63488520473206,35.767636800000005,221
Abrazo Arrowhead Hospital,"18701 N 67th Ave, Glendale, AZ 85308",-112.20114624796793,33.6551568,262
Abrazo Central Campus,"2000 W Bethany Home Rd, Phoenix, AZ 85015",-112.10216139596028,33.52506635,160
Abrazo Scottsdale Campus,"3929 E Bell Rd, Phoenix, AZ 85032",-111.99750968785605,33.63939105,127
Abrazo West Campus,"13677 W McDowell Rd, Goodyear, AZ 85395",-112.35305153752995,33.46267065,179
Banner - University Medical Center Tucson,"1625 N Campbell Ave, Tucson, AZ 85719",-110.94409464220512,32.24197630633849,479
Banner - University Medical Center Phoenix,"1111 E McDowell Rd, Phoenix, AZ 85006",-112.05858003890629,33.46470925,712
Banner - University Medical Center South Campus,"2800 E Ajo Way, Tucson, AZ 85713",-110.93032276201352,32.17532285,150
Banner Baywood Medical Center,"6644 E Baywood Ave, Mesa, AZ 85206",-111.68910376481922,33.41132705,340
Banner Boswell Medical Center,,,,525
Banner Casa Grande Medical Center,"1800 E Florence Blvd, Casa Grande, AZ 85122",-111.70982761090613,32.88093395,141
Banner Del E. Webb Medical Center,"14502 W Meeker Blvd, Sun City West, AZ 85375",-112.37282369643022,33.65982925,394
Banner Desert Medical Center,"1400 S Dobson Rd, Mesa, AZ 85202",-111.8751261,33.3922846,615
Banner Estrella Medical Center,"9201 W Thomas Rd, Phoenix, AZ 85037",-112.2590168,33.4794619,317
Banner Gateway Medical Center,"1900 N Higley Rd, Gilbert, AZ 85234",-111.72296660105481,33.3850106,165
Banner Heart Hospital,"6750 E Baywood Ave, Mesa, AZ 85206",-111.68552809669092,33.411304900000005,111
Banner Ironwood Medical Center,"37000 N Gantzel Rd, Queen Creek, AZ 85140",,,53
Banner Thunderbird Medical Center,"5555 W Thunderbird Rd, Glendale, AZ 85306",-112.17974287722922,33.6089475,555
Canyon Vista Medical Center,"5700 AZ-90, Sierra Vista, AZ 85635",-110.23034804801233,31.55452031905708,94
Carondelet Heart & Vascular Institute,"b'1601 W St Mary\xe2\x80\x99s Rd, Tucson, AZ 85745'",-111.00017933488371,32.22744275,60
Chandler Regional Medical Center,"1955 W Frye Rd, Chandler, AZ 85224",-111.87408291378185,33.2967965,338
Chinle Comprehensive Health Care Facility,"U.S. 191 & Hospital Drive, Chinle, AZ 86503",,,60
Flagstaff Medical Center,"1200 N Beaver St, Flagstaff, AZ 86001",-111.64402185590313,35.20878985,264
Havasu Regional Medical Center,"101 Civic Center Ln, Lake Havasu City, AZ 86403",-114.33813392209615,34.48044445,163
HonorHealth Deer Valley Medical Center,"19829 N 27th Ave, Phoenix, AZ 85027",-112.11594646750765,33.66487025,204
HonorHealth John C. Lincoln Medical Center,"250 E Dunlap Ave, Phoenix, AZ 85020",-112.07065095818291,33.5693337,262
HonorHealth Scottsdale Osborn Medical Center,"7400 E Osborn Rd, Scottsdale, AZ 85251",-111.92298318765714,33.4885727,341
HonorHealth Scottsdale Shea Medical Center,"9003 E Shea Blvd, Scottsdale, AZ 85260",-111.88549543616014,33.58010525,427
HonorHealth Scottsdale Thompson Peak Medical Center,"7400 E Thompson Peak Pkwy, Scottsdale, AZ 85255",-111.8686261,33.671914,120
Kingman Regional Medical Center,"3269 Stockton Hill Rd, Kingman, AZ 86409",-114.03799747458334,35.2201076,214
Mayo Clinic Hospital,"September 30, 1889, Rochester",,,273
Mercy Gilbert Medical Center,"3555 S Val Vista Dr, Gilbert, AZ 85297",-111.75223701286444,33.2870882,198
Mountain Vista Medical Center,"1301 S Crismon Rd, Mesa, AZ 85209",-111.61549857738095,33.39208261309523,162
Northwest Medical Center,"6323 Georgia Ave NW # 212, Washington, DC 20011",,,294
OASIS Hospital,"750 N 40th St, Phoenix, AZ 85008",-111.9966344263043,33.456778850000006,64
Oro Valley Hospital,"1551 E Tangerine Rd, Oro Valley, AZ 85755",-110.94906748599385,32.429294600000006,146
Phoenix Indian Medical Center,"4212 N 16th St, Phoenix, AZ 85016",-112.0490907727991,33.49715495,133
Saint Joseph's Hospital,,,,486
Saint Joseph's Hospital and Medical Center,"350 W Thomas Rd, Phoenix, AZ 85013",-112.08005151512393,33.4822628,512
Saint Mary's Hospital,,,,400
Summit Healthcare Regional Medical Center,"2200 E Show Low Lake Rd, Show Low, AZ 85901",-110.01746316138596,34.202886050000004,89
Tempe Saint Luke's Hospital,"1500 S Mill Ave, Tempe, AZ 85281",-111.94122352819562,33.4124979,65
Tsehootsooi Medical Center,"Corner of Routes N12 & N7, Fort Defiance, AZ 86504",,,56
Tuba City Indian Medical Center,"167 Main St, Tuba City, AZ 86045",-111.2397454,36.1292128,73
Tucson Medical Center,"5301 E Grant Rd, Tucson, AZ 85712",-110.87823963504334,32.252712599999995,457
Valley View Medical Center,"5330 AZ-95, Fort Mohave, AZ 86426",,,84
Valleywise Behavioral Health Center-Maryvale,"5102 W Campbell Ave, Phoenix, AZ 85031",-112.17039238288777,33.50291885,228
Valleywise Health Medical Center,"2601 E Roosevelt St, Phoenix, AZ 85008",-112.02696451230398,33.45683085,564
Verde Valley Medical Center,"269 S Candy Ln, Cottonwood, AZ 86326",-112.03117438472592,34.73777644859566,98
Western Arizona Regional Medical Center,"2735 Silver Creek Rd, Bullhead City, AZ 86442",-114.55580551949816,35.11060475,139
Yavapai Regional Medical Center - East,"7700 Florentine Rd, Prescott Valley, AZ 86314",,,56
Yavapai Regional Medical Center - West,"1003 Willow Creek Rd, Prescott, AZ 86301",-112.48065370327595,34.558813549999996,206
Yuma Regional Medical Center,"2400 S Avenue A, Yuma, AZ 85364",-114.6349417,32.6826354,406
Adventist Health Simi Valley,,,,144
Downey Medical Center,"9333 Imperial Hwy, Downey, CA 90242",-118.2438045,33.929506,352
MarinHealth Medical Center,"250 Bon Air Rd, Greenbrae, CA 94904",-122.53745625425954,37.947299506564356,235
Providence Saint John's Health Center,"2121 Santa Monica Blvd 1st Floor, Santa Monica, CA 90404",,,266
Woodland Hills Medical Center,"5601 De Soto Ave, Woodland Hills, CA 91367",-118.5895399,34.1707705,252
Adventist Health and Rideout,"726 4th St, Marysville, CA 95901",-121.59341106329825,39.1388593,209
Adventist Health Bakersfield,,,,254
Adventist Health Glendale,"1509 Wilson Terrace, Glendale, CA 91206",-118.23038682320198,34.15114345,451
Adventist Health Hanford,,,,230
Adventist Health Lodi Memorial,"975 S Fairmont Ave, Lodi, CA 95240",-121.2869666035873,38.121319,190
Adventist Health Saint Helena,"10 Woodland Rd, St Helena, CA 94574",,,130
Adventist Health Sonora,"1000 Greenley Rd, Sonora, CA 95370",-120.36996265006367,37.97723643487633,152
Adventist Health Tulare,"869 N Cherry St, Tulare, CA 93274",-119.33748776988766,36.22040314097195,108
Adventist Health White Memorial,"1720 East Cesar E Chavez Avenue, Los Angeles, CA 90033",-118.21730855102041,34.050973673469386,353
AHMC Anaheim Regional Medical Center,"1111 W La Palma Ave, Anaheim, CA 92801",-117.93439068729162,33.848169049999996,223
Alameda Hospital,"2070 Clinton Ave, Alameda, CA 94501",-122.25391167935555,37.7627337,215
Alhambra Hospital Medical Center,"100 S Raymond Ave, Alhambra, CA 91801",-118.144882,34.089727,144
Alta Bates Summit Medical Center,,,,354
Alta Bates Summit Medical Center Alta Bates Campus,"2450 Ashby Ave, Berkeley, CA 94705",-122.2572445279277,37.85540885,401
Alvarado Hospital Medical Center,"6655 Alvarado Rd, San Diego, CA 92120",-117.05720835253514,32.776616000000004,304
Anaheim Global Medical Center,"1025 S Anaheim Blvd, Anaheim, CA 92805",-117.90963023664295,33.820504099999994,183
Anaheim Medical Center,,,,484
Antelope Valley Hospital,"1600 W Ave J, Lancaster, CA 93534",-118.15954398797868,34.6866972,393
Antioch Medical Center,,,,138
Arrowhead Regional Medical Center,"400 N Pepper Ave, Colton, CA 92324",-117.352826,34.076434,456
Arroyo Grande Community Hospital,"345 S Halcyon Rd, Arroyo Grande, CA 93420",-120.59043311129251,35.11332565,67
Bakersfield Memorial Hospital,"420 34th St, Bakersfield, CA 93301",-119.00666122666846,35.39263685,421
Baldwin Park Medical Center,"1011 Baldwin Park Blvd, Baldwin Park, CA 91706",-117.98636036887852,34.065076700000006,257
Barton Memorial Hospital,"2170 South Ave, South Lake Tahoe, CA 96150",-119.99663006457729,38.91154605,111
Beverly Hospital,"85 Herrick St, Beverly, MA 01915",-70.8751357650672,42.56415055,224
California Hospital Medical Center,"1401 S Grand Ave, Los Angeles, CA 90015",-118.26580169987598,34.03796115,318
Casa Colina Hospital and Centers for Healthcare,"255 E Bonita Ave, Pomona, CA 91767",-117.74572532631618,34.096313,99
Cedars-Sinai Medical Center,"8700 Beverly Blvd, Los Angeles, CA 90048",-118.38109362449856,34.0751604,880
Centinela Hospital Medical Center,"555 E Hardy St, Inglewood, CA 90301",-118.34830662377192,33.950461149999995,345
CHA Hollywood Presbyterian Medical Center,"1300 N Vermont Ave, Los Angeles, CA 90027",-118.2900782751596,34.0963408,434
Chapman Global Medical Center,"2601 E Chapman Ave, Orange, CA 92869",-117.8267517490287,33.78851865,114
Chinese Hospital,"845 Jackson St, San Francisco, CA 94133",-122.4088760574604,37.79554415,65
Chino Valley Medical Center,"5451 Walnut Ave, Chino, CA 91710",-117.68501417235612,34.0257034,112
City of Hope Comprehensive Cancer Center,,,,217
Clovis Community Medical Center,"2755 Herndon Ave, Clovis, CA 93611",-119.66061004453275,36.8412855,208
Coast Plaza Hospital,"13100 Studebaker Rd, Norwalk, CA 90650",-118.09847483143088,33.91230675,117
College Hospital Costa Mesa,"301 Victoria St, Costa Mesa, CA 92627",-117.91195558083243,33.6521001,122
College Medical Center,,,,221
Community Hospital of Huntington Park,"2623 Slauson Ave, Huntington Park, CA 90255",,,81
Community Hospital of San Bernardino,"1805 Medical Center Dr, San Bernardino, CA 92411",-117.3203731049922,34.131437950000006,347
Community Hospital of the Monterey Peninsula,"23625 Holman Hwy, Monterey, CA 93940",,,286
Community Memorial Hospital,,,,201
Community Regional Medical Center,"2823 Fresno St, Fresno, CA 93721",-119.78408779817215,36.7433526,887
Concord Medical Center,,,,244
Contra Costa Regional Medical Center,"2500 Alhambra Ave, Martinez, CA 94553",-122.13250717569375,38.0066652,147
Corona Regional Medical Center,"800 S Main St, Corona, CA 92882",-117.56923537148273,33.873390150000006,238
CPMC Davies Campus,"45 Castro St, San Francisco, CA 94114",-122.43462122694451,37.768256949999994,223
CPMC Mission Bernal Campus,"3555 Cesar Chavez, San Francisco, CA 94110",,,120
Dameron Hospital,"525 Acacia St, Stockton, CA 95203",-121.3007107971365,37.96128720047725,170
Delano Regional Medical Center,"1401A Garces Hwy, Delano, CA 93215",-119.23938171717172,35.76149048484848,107
Desert Regional Medical Center,"1150 N Indian Canyon Dr, Palm Springs, CA 92262",-116.54244075327415,33.839248,369
Desert Valley Hospital,"16850 Bear Valley Rd, Victorville, CA 92395",-117.2632773,34.4710863,148
Doctors Hospital of Manteca,"1205 E North St, Manteca, CA 95336",-121.19747114154427,37.801053249999995,73
Doctors Medical Center of Modesto,"1441 Florida Ave, Modesto, CA 95350",-120.99737101871051,37.665562800000004,447
Dominican Hospital,"1555 Soquel Dr, Santa Cruz, CA 95065",-121.98355367962361,36.99011325,222
East Los Angeles Doctors Hospital,"4060 Whittier Blvd, Los Angeles, CA 90023",-118.1843731349353,34.023160250000004,127
Eden Medical Center,"20103 Lake Chabot Rd, Castro Valley, CA 94546",-122.08927136875985,37.698084449999996,130
Eisenhower Medical Center,"39000 Bob Hope Dr, Rancho Mirage, CA 92270",-116.406171354673,33.763364949999996,368
El Camino Hospital Mountain View Campus,"2500 Grant Rd, Mountain View, CA 94040",-122.079862859814,37.36885985000001,443
El Centro Regional Medical Center,"1415 Ross Ave, El Centro, CA 92243",-115.56852244658454,32.780552400000005,161
Emanate Health Foothill Presbyterian Hospital,"250 S Grand Ave, Glendora, CA 91741",-117.87146676134782,34.132921,105
Emanate Health Inter-Community Hospital,"210 W San Bernardino Rd, Covina, CA 91723",-117.89343076496034,34.08834565,516
Emanate Health Queen of the Valley Hospital,"1115 S Sunset Ave, West Covina, CA 91790",-117.94545831391966,34.06406025,325
Emanuel Medical Center,"117 Kight Rd, Swainsboro, GA 30401",,,209
Encino Hospital Medical Center,"16237 Ventura Blvd, Encino, CA 91436",-118.4868709353006,34.15736795,148
Enloe Medical Center,"1531 Esplanade, Chico, CA 95926",-121.8502719422056,39.74250845,338
Fontana Medical Center,"9961 Sierra Ave, Fontana, CA 92335",-117.43345313175564,34.0722265,626
Foothill Regional Medical Center,"14662 Newport Ave, Tustin, CA 92780",-117.828255270753,33.7302231,177
Fountain Valley Regional Hospital and Medical Center,"11100-11190 Warner Ave, Fountain Valley, CA 92708",,,400
French Hospital Medical Center,"1911 Johnson Ave, San Luis Obispo, CA 93401",-120.65152559973455,35.27788735,98
Fresno Heart & Surgical Hospital,"15 E Audubon Dr, Fresno, CA 93720",-119.78836026727862,36.8599472,57
Fresno Medical Center,,,,169
Garden Grove Hospital and Medical Center,"12601 Garden Grove Blvd, Garden Grove, CA 92843",-117.9128811157726,33.77506515,167
Garfield Medical Center,"525 N Garfield Ave, Monterey Park, CA 91754",,,210
Glendale Memorial Hospital & Health Center,"1420 S Central Ave, Glendale, CA 91204",-118.25631547621956,34.1275924,304
Glendora Oaks Behavioral Health Hospital,"150 W Rte 66, Glendora, CA 91740",-117.86311847838545,34.12889278833237,128
Good Samaritan Hospital,,,,342
Good Samaritan Hospital,"5601 Loch Raven Blvd, Baltimore, MD 21239",-76.58584727178213,39.3575548,310
Good Samaritan Hospital North,"7271 N Main St, Dayton, OH 45415",-84.2206839,39.8033581,64
Greater El Monte Community Hospital,"1701 Santa Anita Ave, South El Monte, CA 91733",-118.04342975352006,34.04792215,117
Harbor-UCLA Medical Center,"1000 W Carson St, Torrance, CA 90502",-118.3095339,33.8314711,428
Hazel Hawkins Memorial Hospital,"911 Sunset Dr, Hollister, CA 95023",-121.38632678126967,36.8343282,168
Hemet Global Medical Center,"1117 E Devonshire Ave, Hemet, CA 92543",-116.9600177551539,33.75115709771385,417
Henry Mayo Newhall Memorial Hospital,"23845 McBean Pkwy, Valencia, CA 91355",-118.55332979827907,34.397909049999996,238
Hi-Desert Medical Center,"6601 White Feather Rd, Joshua Tree, CA 92252",-116.27504867355569,34.131822,175
Highland Hospital,,,,372
Hoag Hospital Newport Beach,"1 Hoag Dr 1st floor, Newport Beach, CA 92663",,,518
Hoag Orthopedic Institute,"16250 Sand Canyon Ave, Irvine, CA 92618",-117.7543082,33.6813885,70
Huntington Beach Hospital,"17772 Beach Blvd, Huntington Beach, CA 92647",-117.98736786236547,33.70383355,131
Huntington Hospital,,,,568
John F. Kennedy Memorial Hospital,"47111 Monroe St, Indio, CA 92201",-116.23612764229054,33.7061251,130
Kaiser Permanente Roseville Medical Center,"1600 Eureka Rd, Roseville, CA 95661",-121.25007754766285,38.74651305,340
Kaiser Permanente San Francisco Medical Center,,,,239
Kaiser Permanente South San Francisco Medical Center,"1200 El Camino Real, South San Francisco, CA 94080",-122.43985693178024,37.65965475,120
Kaiser Permanente Zion Medical Center,"4647 Zion Ave, San Diego, CA 92120",-117.09498300667414,32.79141215,536
Kaweah Delta Health Care District,"400 W Mineral King Ave, Visalia, CA 93291",-119.29410951801157,36.328594,581
Keck Hospital of USC,"1818 Verdugo Blvd UNIT 300, Glendale, CA 91208",,,330
Kern Medical Center,"1700 Mt Vernon Ave, Bakersfield, CA 93306",-118.97023861539468,35.3826708,222
LA Downtown Medical Center Downtown Campus,,,,234
La Palma Intercommunity Hospital,"7901 Walker St, La Palma, CA 90623",-118.03883544826569,33.84711755,140
Laguna Honda Hospital and Rehabilitation Center,"375 Laguna Honda Blvd, San Francisco, CA 94116",-122.45729651523612,37.7494814,780
Lakewood Regional Medical Center,"3700 E South St, Lakewood, CA 90712",,,172
Loma Linda University Children's Hospital,"11234 Anderson St, Loma Linda, CA 92354",-117.26343554537584,34.04911185,343
Loma Linda University Medical Center,"11234 Anderson St, Loma Linda, CA 92354",-117.26343554537584,34.04911185,524
Loma Linda University Medical Center - Murrieta,"28062 Baxter Rd, Murrieta, CA 92563",-117.16858006444426,33.61476705,112
Lompoc Valley Medical Center,"1515 E Ocean Ave, Lompoc, CA 93436",-120.43958180144693,34.64120565,170
Long Beach Medical Center,,,,453
Los Alamitos Medical Center,"3751 Katella Ave, Los Alamitos, CA 90720",-118.0671432174315,33.804075850000004,146
Los Angeles Community Hospital,"4081 E Olympic Blvd, Los Angeles, CA 90023",-118.1864606,34.0191797,324
Los Angeles County and University of Southern California Medical Center,"2051 Marengo St, Los Angeles, CA 90033",-118.20921884540476,34.05928145,670
Los Angeles Medical Center,"2115 Compton Ave #301, Corona, CA 92881",,,528
Los Robles Regional Medical Center,"215 W Janss Rd, Thousand Oaks, CA 91360",-118.88314660772305,34.20779005,327
Madera Community Hospital,"1250 E Almond Ave, Madera, CA 93637",-120.04464020126886,36.94433135,106
Manteca Medical Center,,,,251
Marian Regional Medical Center,"1400 E Church St, Santa Maria, CA 93454",-120.41323589032642,34.951438249999995,388
Marina Del Rey Hospital,"4650 Lincoln Blvd, Marina Del Rey, CA 90292",-118.4401292012784,33.98135232254192,103
Marshall Medical Center,"8000 AL-69, Guntersville, AL 35976",-86.3152716,34.3536557,124
"Martin Luther King, Jr. Community Hospital","1680 E 120th St, Los Angeles, CA 90059",-118.24269392395072,33.92289615,131
Mee Memorial Hospital,"300 Canal St, King City, CA 93930",-121.13281266341863,36.206349349999996,95
Memorial Hospital of Gardena,"1145 W Redondo Beach Blvd, Gardena, CA 90247",-118.29505014585055,33.89312165,172
Memorial Medical Center,,,,419
Menifee Global Medical Center,"28400 McCall Blvd, Menifee, CA 92585",-117.1680930126495,33.7193976,84
Mercy General Hospital,"4001 J St, Sacramento, CA 95819",-121.45302027905446,38.57057075,419
Mercy Hospital Downtown Bakersfield,"2215 Truxtun Ave, Bakersfield, CA 93301",-119.0276306,35.37267355,226
Mercy Hospital of Folsom,"1650 Creekside Dr, Folsom, CA 95630",-121.14656860101317,38.6701231,106
Mercy Medical Center,,,,186
Mercy Medical Center Redding,"2175 Rosaline Ave, Redding, CA 96001",-122.39588280195213,40.571750249999994,262
Mercy San Juan Medical Center,"6501 Coyle Ave, Carmichael, CA 95608",,,370
Methodist Hospital,,,,348
Methodist Hospital of Sacramento,"7500 Hospital Dr, Sacramento, CA 95823",-121.41634890895006,38.463021299999994,329
Mills-Peninsula Medical Center,"1501 Trousdale Dr, Burlingame, CA 94010",-122.38367483626453,37.5920174,301
Mission Community Hospital,"14850 Roscoe Blvd, Panorama City, CA 91402",-118.45647402657065,34.22036305,145
Mission Hospital Laguna Beach,"31872 Coast Hwy, Laguna Beach, CA 92651",-117.74083183330106,33.5006226,189
Mission Hospital Mission Viejo,"27700 Medical Center Rd, Mission Viejo, CA 92691",-117.66511926788004,33.56148575,523
Montclair Hospital Medical Center,"5000 San Bernardino St, Montclair, CA 91763",-117.69579950586069,34.07903925,106
Monterey Park Hospital,"900 S Atlantic Blvd, Monterey Park, CA 91754",-118.13808529561979,34.04980485,101
Moreno Valley Medical Center,,,,94
Natividad Medical Center,"1441 Constitution Blvd, Salinas, CA 93906",-121.63402512512295,36.6974311,172
NorthBay Medical Center,"1200 B Gale Wilson Blvd, Fairfield, CA 94533",-122.04777683246526,38.262131749999995,182
Northridge Hospital Medical Center,"18300 Roscoe Blvd, Northridge, CA 91325",-118.5330418808359,34.220267250000006,394
O'Connor Hospital,"460 Andes Rd, Delhi, NY 13753",-74.91659029381664,42.26827835,348
Oak Valley Hospital,"350 S Oak Ave, Oakdale, CA 95361",-120.86147648614514,37.75742625,150
Oakland Medical Center,,,,365
Olive View-UCLA Medical Center,"14445 Olive View Dr, Sylmar, CA 91342",-118.44542718240601,34.3265933,304
Olympia Medical Center,"5900 W Olympic Blvd, Los Angeles, CA 90036",-118.36029160463534,34.05725195,204
Orange Coast Memorial Medical Center,"18111 Brookhurst St, Fountain Valley, CA 92708",-117.95568247440247,33.70010835,218
Orange County Global Medical Center,"1001 N Tustin Ave, Santa Ana, CA 92705",-117.83302742324665,33.7539445,228
Oroville Hospital,"2767 Olive Hwy, Oroville, CA 95966",-121.54115642975147,39.5055825,133
Pacifica Hospital of the Valley,"9449 San Fernando Rd, Sun Valley, CA 91352",-118.3737247,34.2222779,231
Palmdale Regional Medical Center,"38600 Medical Center Dr, Palmdale, CA 93551",-118.14462512448063,34.583193800000004,184
Palo Verde Hospital,,,,51
Palomar Medical Center Escondido,"2185 Citracado Parkway, Escondido, CA 92029",-117.12152774298008,33.12050705,329
Palomar Medical Center Poway,"15615 Pomerado Rd, Poway, CA 92064",-117.0559524,32.9968221,236
Panorama City Medical Center,,,,218
Paradise Valley Hospital,"2400 E 4th St, National City, CA 91950",-117.08109702685539,32.6845534,291
Parkview Community Hospital Medical Center,"3865 Jackson St, Riverside, CA 92503",-117.43908038996827,33.9270452,191
Petaluma Valley Hospital,"400 N McDowell Blvd, Petaluma, CA 94954",-122.63164750061051,38.254765899999995,80
PIH Health Hospital - Downey,"11500 Brookshire Ave, Downey, CA 90241",-118.13103901614653,33.93460875,199
PIH Health Hospital - Whittier,"12401 Washington Blvd, Whittier, CA 90602",-118.04971969331373,33.9699784,384
Pioneers Memorial Hospital,"207 W Legion Rd, Brawley, CA 92227",-115.55433124879434,32.95867375,107
Placentia-Linda Hospital,"1301 N Rose Dr, Placentia, CA 92870",-117.84324990647133,33.88655895,114
Pomona Valley Hospital Medical Center,"1798 N Garey Ave, Pomona, CA 91767",-117.75058962241243,34.07721975,412
Providence Holy Cross Medical Center,,,,377
Providence Little Company of Mary Medical Center San Pedro,"1300 W 7th St, San Pedro, CA 90732",-118.30668535728435,33.739339099999995,356
Providence Little Company of Mary Medical Center Torrance,"4101 Torrance Blvd, Torrance, CA 90503",-118.35718500621408,33.83880825,442
Providence Saint Joseph Medical Center,"501 S Buena Vista St, Burbank, CA 91505",-118.32832890181228,34.15594575,392
Providence Tarzana Medical Center,"18321 Clark St, Tarzana, CA 91356",-118.53246624838393,34.1704749,246
Queen of the Valley Medical Center,"1000 Trancas St, Napa, CA 94558",-122.2943651,38.3255689,166
Rancho Los Amigos National Rehabilitation Center,"7601 E Imperial Hwy, Downey, CA 90242",-118.1451871,33.9205243,210
Rancho Springs Medical Center,"25500 Medical Center Dr, Murrieta, CA 92562",-117.18338710854287,33.5585562,240
Redlands Community Hospital,"350 Terracina Blvd, Redlands, CA 92373",-117.20650506569149,34.03754215,229
Redwood City Medical Center,"1150 Veterans Blvd, Redwood City, CA 94063",-122.22338657166082,37.4888811,149
Regional Medical Center of San Jose,"225 N Jackson Ave, San Jose, CA 95116",-121.8493426270098,37.36214765,258
Riverside Community Hospital,"4445 Magnolia Ave, Riverside, CA 92501",-117.38257502218809,33.9765046,478
Riverside Medical Center,,,,226
Riverside University Medical Center,"26520 Cactus Ave, Moreno Valley, CA 92555",-117.19637878783084,33.9119259,439
Ronald Reagan UCLA Medical Center,"757 Westwood Plaza, Los Angeles, CA 90095",-118.44650679402692,34.0664646,445
Sacramento Medical Center,,,,287
Saddleback Medical Center,"24451 Health Center Dr, Laguna Hills, CA 92653",-117.7094042451472,33.60863405,248
Saint Agnes Medical Center,,,,385
Saint Bernardine Medical Center,"2101 N Waterman Ave, San Bernardino, CA 92404",,,328
Saint Francis Medical Center,,,,374
Saint Francis Memorial Hospital,"900 Hyde St, San Francisco, CA 94109",-122.41653408763761,37.78963455,211
Saint John's Pleasant Valley Hospital,"2309 Antonio Ave, Camarillo, CA 93010",-119.01987410094888,34.24352825,155
Saint John's Regional Medical Center,"1600 N Rose Ave, Oxnard, CA 93030",-119.15617690239208,34.216721750000005,265
Saint Joseph Hospital,,,,446
Saint Joseph Hospital Eureka,"2700 Dolbeer St, Eureka, CA 95501",-124.14211247180504,40.784236199999995,149
Saint Joseph's Medical Center,,,,348
Saint Jude Medical Center,"2802 Rhode Island Ave NE # 1, Washington, DC 20018",,,320
Saint Louise Regional Hospital,"9400 No Name Uno, Gilroy, CA 95020",-121.57178147794517,37.0365649,72
Saint Mary Medical Center,"1201 Langhorne-Newtown Road, Langhorne, PA 19047",,,212
Saint Mary's Medical Center,,,,159
Saint Rose Hospital,"27200 Calaroga Ave, Hayward, CA 94545",-122.08790356843016,37.63320025,195
Salinas Valley Memorial Hospital,"450 E Romie Ln, Salinas, CA 93901",-121.6463270436223,36.6591079,240
San Antonio Regional Hospital,"999 San Bernardino Rd, Upland, CA 91786",-117.6375642036996,34.1018422,363
San Dimas Community Hospital,"1350 W Covina Blvd, San Dimas, CA 91773",-117.83438815417705,34.097127150000006,95
San Gabriel Valley Medical Center,"438 W Las Tunas Dr, San Gabriel, CA 91776",,,273
San Gorgonio Memorial Hospital,"600 N Highland Springs Ave, Banning, CA 92220",-116.9469187,33.9515794,61
San Joaquin General Hospital,"500 W Hospital Rd, French Camp, CA 95231",-121.28297548125127,37.886327,196
San Jose Medical Center Main Campus,"250 Hospital Pkwy, San Jose, CA 95119",-121.8008585602177,37.2399572,235
San Leandro Medical Center,"2500 Merced St, San Leandro, CA 94577",-122.16514715008631,37.7060167,206
San Mateo Medical Center,"222 W 39th Ave, San Mateo, CA 94403",-122.30020860349521,37.530903949999995,508
San Rafael Medical Center,,,,116
San Ramon Regional Medical Center,"6001 Norris Canyon Rd, San Ramon, CA 94583",-121.95861021536575,37.77621565,123
Santa Barbara Cottage Hospital,,,,363
Santa Clara Medical Center,,,,327
Santa Clara Valley Medical Center,"751 S Bascom Ave, San Jose, CA 95128",-121.935317957676,37.31312855,974
Santa Rosa Hospital,,,,173
Santa Rosa Memorial Hospital,"1165 Montgomery Dr, Santa Rosa, CA 95405",-122.70088385776059,38.44380015,298
Scripps Green Hospital,"10666 N Torrey Pines Rd, La Jolla, CA 92037",-117.24263914897723,32.89631765,150
Scripps Memorial Hospital Encinitas,"354 Santa Fe Dr, Encinitas, CA 92024",-117.2593668,33.0384829,193
Scripps Memorial Hospital La Jolla,"9888 Genesee Ave, La Jolla, CA 92037",-117.2390665,32.8911699,365
Scripps Mercy Hospital Chula Vista,"435 H St, Chula Vista, CA 91910",-117.08319,32.633869,173
Scripps Mercy Hospital San Diego,"4077 Fifth Ave, San Diego, CA 92103",,,523
Sequoia Hospital,"170 Alameda de las Pulgas, Redwood City, CA 94062",-122.2550236,37.4795113,208
Seton Medical Center,,,,434
Sharp Chula Vista Medical Center,"751 Medical Center Ct, Chula Vista, CA 91911",-117.0230189178402,32.6188528,343
Sharp Coronado Hospital,"250 Prospect Pl, Coronado, CA 92118",-117.16807123041907,32.69427305166269,181
Sharp Grossmont Hospital,"5555 Grossmont Center Dr, La Mesa, CA 91942",-117.00666249522895,32.78093805,524
Sharp Memorial Hospital,"7901 Frost St, San Diego, CA 92123",-117.15435353818233,32.79969815,862
Shasta Regional Medical Center,"1100 Butte St, Redding, CA 96001",-122.38762824209377,40.585181649999996,226
Sherman Oaks Hospital,"4929 Van Nuys Blvd, Sherman Oaks, CA 91403",-118.44943025492258,34.160339449999995,153
Sierra Nevada Memorial Hospital,"155 Glasson Way, Grass Valley, CA 95945",-121.0471166273954,39.228164250000006,104
Sierra View District Hospital,"465 W Putnam Ave, Porterville, CA 93257",-119.02597760625369,36.068604199999996,163
Sierra Vista Regional Medical Center,"1010 Murray Ave, San Luis Obispo, CA 93405",,,162
Sonoma Valley Hospital,"347 Andrieux St, Sonoma, CA 95476",-122.4653451245056,38.2881011,75
South Bay Medical Center,,,,257
South Coast Global Medical Center,"2701 S Bristol St, Santa Ana, CA 92704",-117.88550580842738,33.71118039140086,178
South Sacramento Medical Center,"6600 Bruceville Rd, Sacramento, CA 95823",-121.422832325,38.469415049999995,209
Southern California Hospital at Culver City,"3828 Delmas Terrace, Culver City, CA 90232",-118.39767078945283,34.02275805,406
Southern California Hospital at Hollywood,"6245 De Longpre Ave, Los Angeles, CA 90028",-118.32532039012489,34.09665955,612
St. Mary Medical Center Long Beach,"1050 Linden Ave, Long Beach, CA 90813",-118.18590449177722,33.77962105,284
Stanford Health Care - ValleyCare-Livermore,"1111 E Stanley Blvd, Livermore, CA 94550",-121.78161214456239,37.67758085,207
Stanford Hospital,,,,477
Sutter Amador Hospital,"200 Mission Blvd, Jackson, CA 95642",-120.76467138798357,38.350680600000004,52
Sutter Auburn Faith Hospital,"11815 Education St, Auburn, CA 95602",,,64
Sutter Delta Medical Center,"3901 Lone Tree Way, Antioch, CA 94509",-121.80303745986697,37.98274085,145
Sutter Medical Center,"2825 Capitol Ave, Sacramento, CA 95816",-121.46873271472235,38.571524499999995,523
Sutter Roseville Medical Center,"1 Medical Plaza Dr, Roseville, CA 95661",-121.24858805088272,38.765399849999994,328
Sutter Santa Rosa Regional Hospital,"30 Mark West Springs Rd, Santa Rosa, CA 95403",-122.75190236949636,38.494594,84
Sutter Solano Medical Center,,,,106
Sutter Tracy Community Hospital,"1420 N Tracy Blvd, Tracy, CA 95376",-121.43516835714286,37.7436921122449,77
Temecula Valley Hospital,"31700 Temecula Pkwy, Temecula, CA 92592",-117.10616979081323,33.4810738,140
Torrance Memorial Medical Center,"3330 Lomita Blvd, Torrance, CA 90505",-118.34375955827679,33.8108299,512
Tri-City Medical Center,"4002 Vista Way, Oceanside, CA 92056",-117.29079851026901,33.18567765,305
Twin Cities Community Hospital,"1100 Las Tablas Rd, Templeton, CA 93465",-120.720007,35.554775,122
UC Davis Medical Center,"2315 Stockton Blvd, Sacramento, CA 95817",-121.45179003143164,38.5526924,617
UC San Diego Health System - Hillcrest,"200 W Arbor Dr, San Diego, CA 92103",-117.16552466018484,32.75531155,701
UCI Health,"101 The City Dr S, Orange, CA 92868",-117.88840705261205,33.78722845,414
"UCLA Medical Center, Santa Monica","1250 16th St, Santa Monica, CA 90404",-118.48628863017754,34.02716695,281
UCSF Medical Center at Parnassus,"505 Parnassus Ave, San Francisco, CA 94143",-122.45740267680621,37.76307,785
USC Norris Comprehensive Cancer Center,"1441 Eastlake Ave, Los Angeles, CA 90033",-118.20541166805805,34.06143675,60
USC Verdugo Hills Hospital,"1812 Verdugo Blvd, Glendale, CA 91208",-118.21622583360752,34.2045021,165
Vacaville Medical Center,,,,140
Vallejo Hospital & Medical Offices,,,,248
Valley Presbyterian Hospital,"15107 Vanowen St, Van Nuys, CA 91405",-118.46349199702345,34.194862,350
Ventura County Medical Center,"300 Hillmont Ave, Ventura, CA 93003",-119.25354679663657,34.2792501,272
Victor Valley Global Medical Center,"15248 Eleventh St, Victorville, CA 92395",,,101
Walnut Creek Medical Center,,,,554
Walnut Creek Medical Center,,,,233
Washington Hospital,"110 Irving St NW, Washington, DC 20010",-77.01476928297282,38.9287492,320
Watsonville Community Hospital,,,,106
West Anaheim Medical Center,"3033 W Orange Ave, Anaheim, CA 92804",-117.99514038284622,33.82562935,219
West Hills Hospital & Medical Center,"7300 Medical Center Dr, West Hills, CA 91307",-118.62928530819536,34.202666449999995,228
West Los Angeles Medical Center,"6041 Cadillac Ave, Los Angeles, CA 90034",-118.37481035336512,34.038716300000004,265
Whittier Hospital Medical Center,"9080 Colima Rd, Whittier, CA 90605",-118.00391928088087,33.95018415,178
Woodland Memorial Hospital,"1325 Cottonwood St, Woodland, CA 95695",-121.79221611620872,38.66495225,108
Zuckerberg San Francisco General Hospital and Trauma Center,"1001 Potrero Ave, San Francisco, CA 94110",-122.4037899,37.7545482,397
Avista Adventist Hospital,"100 Health Park Dr, Louisville, CO 80027",-105.15189102208683,39.951636300000004,108
Castle Rock Adventist Hospital,,,,53
Community Hospital,,,,53
Denver Health,"777 Bannock St, Denver, CO 80204",-104.99119835138615,39.72731935,453
Foothills Hospital,"4747 Arapahoe Ave, Boulder, CO 80303",-105.2380017,40.0158795,168
Good Samaritan Medical Center,"235 N Pearl St, Brockton, MA 02301",-71.0618812,42.0972167,183
Littleton Adventist Hospital,"7700 S Broadway, Littleton, CO 80122",-104.9858838118169,39.5755567,176
Longmont United Hospital,"1950 Mountain View Ave, Longmont, CO 80501",-105.12616395747503,40.18203,131
Lutheran Medical Center,"150 55th St, Brooklyn, NY 11220",-74.02097374251767,40.64676075,282
McKee Medical Center,"2000 N Boise Ave, Loveland, CO 80538",-105.05352945454545,40.41340362626263,115
Mercy Regional Medical Center,"3700 Kolbe Rd, Lorain, OH 44053",-82.23751334034267,41.4366447,82
Montrose Memorial Hospital,"800 S 3rd St, Montrose, CO 81401",-107.86813338489189,38.480895000000004,60
North Colorado Medical Center,"1801 16th St, Greeley, CO 80631",-104.70894383099454,40.414806049999996,225
North Suburban Medical Center,"9191 Grant St, Thornton, CO 80229",-104.9859948316301,39.8645116,127
Parker Adventist Hospital,"9395 Crown Crest Blvd, Parker, CO 80138",-104.76909222943029,39.548590149999995,165
Parkview Medical Center,"400 W 16th St, Pueblo, CO 81003",-104.6125716266923,38.28169165,326
Penrose-St. Francis Health Services,"6001 E Woodmen Rd, Colorado Springs, CO 80923",-104.71696562858679,38.93855945,468
Platte Valley Medical Center,"1600 Prairie Center Pkwy, Brighton, CO 80601",-104.76888807654464,39.964003000000005,89
Porter Adventist Hospital,"2525 S Downing St, Denver, CO 80210",-104.97588317820552,39.6699704,233
Presbyterian/Saint Luke's Medical Center,"1719 E 19th Ave, Denver, CO 80218",-104.96709668893541,39.74715715000001,337
Rose Medical Center,"4567 E 9th Ave, Denver, CO 80220",-104.9334075214867,39.7316371,226
Saint Anthony Hospital,,,,237
Saint Anthony North Hospital,"14300 Orchard Pkwy, Westminster, CO 80023",-104.9913966608369,39.9554252,92
Saint Joseph Hospital,,,,361
Saint Mary's Medical Center - SCL Health,"2635 N 7th St, Grand Junction, CO 81501",-108.56320369618868,39.0902952,281
Sky Ridge Medical Center,"10101 RidgeGate Parkway, Lone Tree, CO 80124",-104.87121250207079,39.528924,272
Swedish Medical Center,"501 E Hampden Ave, Englewood, CO 80113",-104.97999283705894,39.65439465,372
The Medical Center of Aurora,"1501 S Potomac St, Aurora, CO 80012",-104.83214374884406,39.69024745,329
UCHealth Medical Center of the Rockies,"2500 Rocky Mountain Ave, Loveland, CO 80538",-104.9974664214923,40.415419799999995,174
UCHealth Memorial Hospital Central,"1400 E Boulder St, Colorado Springs, CO 80909",-104.799593,38.8393776,537
UCHealth Poudre Valley Hospital,"1024 S Lemay Ave, Fort Collins, CO 80524",-105.05636311850762,40.5719165,280
UCHealth University of Colorado Hospital,"12605 E 16th Ave, Aurora, CO 80045",-104.841661,39.7425435,662
Vail Health Hospital,"181 W Meadow Dr, Vail, CO 81657",-106.38232672907262,39.64347535,56
Backus Hospital,"326 Washington St, Norwich, CT 06360",-72.08874730501404,41.542743900000005,183
Bridgeport Hospital,"267 Grant St, Bridgeport, CT 06610",-73.16746970382079,41.189470850000006,371
Bridgeport Hospital Milford Campus,"300 Seaside Ave, Milford, CT 06460",-73.06536039300812,41.21654515,106
Bristol Hospital,"41 Brewster Rd #5161, Bristol, CT 06010",,,121
Charlotte Hungerford Hospital,"540 Litchfield St, Torrington, CT 06790",-73.13376944648427,41.792270450000004,108
Danbury Hospital,"24 Hospital Ave, Danbury, CT 06810",-73.4441888710472,41.40523175,396
Day Kimball Hospital,"320 Pomfret St, Putnam, CT 06260",-71.91401472099244,41.9069644,104
Greenwich Hospital,"5 Perryridge Rd, Greenwich, CT 06830",-73.63064634640509,41.034299,181
Griffin Hospital,"130 Division St, Derby, CT 06418",-73.0892825,41.3353793,117
Hartford Hospital,"80 Seymour St, Hartford, CT 06106",-72.6796497,41.7544777,938
Johnson Memorial Hospital,,,,70
Lawrence & Memorial Hospital,"b'57\xc2\xb0F (14\xc2\xb0C), Wind W at 3 mph (5 km/h), 39% Humidity'",,,252
Manchester Memorial Hospital,"71 Haynes St, Manchester, CT 06040",-72.52584001808663,41.7816396,171
Masonicare Main Campus,,,,425
Middlesex Hospital,"28 Crescent St, Middletown, CT 06457",-72.6472262375895,41.554399149999995,229
MidState Medical Center,"435 Lewis Ave, Meriden, CT 06451",-72.80125249019261,41.5487876,143
New Milford Hospital,"New Milford, Connecticut, United States",-73.41176538312553,41.5867418,85
Norwalk Hospital,"34 Maple St, Norwalk, CT 06856",-73.42196834625594,41.1108619,271
Rockville General Hospital,"31 Union St, Vernon, CT 06066",-72.45131973625521,41.866395,232
Saint Francis Hospital and Medical Center,"114 Woodland St, Hartford, CT 06105",-72.69808992710763,41.77413945,572
Saint Mary's Hospital,,,,164
Saint Vincent's Medical Center,"2800 E Main St, Bridgeport, CT 06606",-73.17866538559488,41.213132332280296,298
Sharon Hospital,"50 Hospital Hill Rd, Sharon, CT 06069",-73.48199603029511,41.88096365,78
Stamford Hospital,"One Hospital Plaza, Stamford, CT 06902",,,305
The Hospital of Central Connecticut at New Britain General,"100 Grand St 1st floor, New Britain, CT 06052",,,278
UConn John Dempsey Hospital,"Hospital Way, Farmington, CT 06032",-72.8052646,41.7361907,156
Waterbury Hospital,"64 Robbins St, Waterbury, CT 06708",-73.0587191,41.5584302,243
Yale-New Haven Hospital,"20 York St, New Haven, CT 06510",-72.93559409819855,41.3046035,"1,540"
Yale-New Haven Hospital Saint Raphael Campus,"1450 Chapel St, New Haven, CT 06511",-72.94293144420357,41.31014365,573
Howard University Hospital,"2041 Georgia Ave NW, Washington, DC 20060",-77.0201005008513,38.91783385,200
MedStar Georgetown University Hospital,"3800 Reservoir Rd NW, Washington, DC 20007",-77.07519316890705,38.911482649999996,393
Medstar Washington Hospital Center,"110 Irving St NW, Washington, DC 20010",-77.01476928297282,38.9287492,747
Sibley Memorial Hospital,"5255 Loughboro Rd NW, Washington, DC 20016",-77.10887953799133,38.9367698,255
The George Washington University Hospital,"900 23rd St NW, Washington, DC 20037",-77.05060019254144,38.9014106,365
United Medical Center,"1310 Southern Ave SE, Washington, DC 20032",-76.98493750510922,38.83587585,196
"Bayhealth Hospital, Kent Campus","640 S State St, Dover, DE 19901",-75.52357108854638,39.151393350000006,281
"Bayhealth Hospital, Sussex Campus","100 Wellness Way, Milford, DE 19963",-75.3916778156511,38.8869823,156
Beebe Healthcare,"424 Savannah Rd, Lewes, DE 19958",-75.14388955257425,38.77141195,195
Christiana Hospital,"4755 Ogletown Stanton Rd, Newark, DE 19718",,,"1,166"
Nanticoke Memorial Hospital,"801 Middleford Rd, Seaford, DE 19973",-75.60439499915094,38.64163605,94
Saint Francis Healthcare,"701 N Clayton St, Wilmington, DE 19805",-75.5677885196329,39.7498175,180
AdventHealth Carrollwood,"7171 N Dale Mabry Hwy, Tampa, FL 33614",,,103
AdventHealth Dade City,"13100 Fort King Rd, Dade City, FL 33525",-82.20047477869048,28.3479584,120
AdventHealth DeLand,"701 W Plymouth Ave, DeLand, FL 32720",-81.31761684532522,29.044208349999998,164
AdventHealth Fish Memorial,"1055 Saxon Blvd, Orange City, FL 32763",-81.28491733442422,28.915330400000002,179
AdventHealth Heart of Florida,"40100 US-27, Davenport, FL 33837",,,193
AdventHealth Lake Wales,"410 S 11th St, Lake Wales, FL 33853",-81.56539790464527,27.8956996,131
AdventHealth New Smyrna Beach,"401 Palmetto St, New Smyrna Beach, FL 32168",-80.92197859360465,29.0205548,112
AdventHealth North Pinellas,"1395 S Pinellas Ave, Tarpon Springs, FL 34689",-82.7574993403646,28.132964100000002,168
AdventHealth Ocala,"1500 SW 1st Ave, Ocala, FL 34471",-82.13870173687853,29.174801700000003,413
AdventHealth Orlando,"601 E Rollins St, Orlando, FL 32803",,,"2,826"
AdventHealth Palm Coast,"60 Memorial Medical Pkwy, Palm Coast, FL 32164",-81.18909785919688,29.4799625,99
AdventHealth Sebring,"4200 Sun N Lake Blvd, Sebring, FL 33872",,,197
AdventHealth Tampa,"3100 E Fletcher Ave, Tampa, FL 33613",-82.42374939767217,28.07107475,536
AdventHealth Waterman,"1000 Waterman Way, Tavares, FL 32778",-81.71234241053276,28.8243087,269
AdventHealth Wesley Chapel,"2600 Bruce B Downs Blvd, Wesley Chapel, FL 33544",-82.35152437304507,28.19511645,145
AdventHealth Zephyrhills,"7050 Gall Blvd, Zephyrhills, FL 33541",-82.18604736412146,28.26096105,149
Ascension Sacred Heart Hospital on the Emerald Coast,"7800 US-98, Miramar Beach, FL 32550",-86.3557777,30.380541,62
Ascension Sacred Heart Hospital Pensacola,"1549 Airport Blvd, Pensacola, FL 32504",-87.2110717,30.4812176,561
Ascension St. Vincent's Clay County Hospital,"1670 St Vincents Way, Middleburg, FL 32068",-81.8321482,30.1094042,106
Ascension St. Vincent's Riverside Hospital,"1 Shircliff Way, Jacksonville, FL 32204",-81.68996279928885,30.307424400000002,479
Ascension St. Vincent's Southside Hospital,"4201 Belfort Rd, Jacksonville, FL 32216",-81.58183576742096,30.25364555,260
Aventura Hospital and Medical Center,"20900 Biscayne Blvd, Aventura, FL 33180",-80.1450406167155,25.96999245,407
Baptist Hospital,,,,728
Baptist Hospital,,,,326
Baptist Medical Center Beaches,"1350 13th Ave S, Jacksonville Beach, FL 32250",-81.3990893850194,30.27359165,135
Baptist Medical Center Jacksonville,"800 Prudential Dr, Jacksonville, FL 32207",-81.66325825709765,30.315937750000003,903
Baptist Medical Center Nassau,"1250 S 18th St, Fernandina Beach, FL 32034",-81.44917624226903,30.652304649999998,54
Bartow Regional Medical Center,"2200 Osprey Blvd, Bartow, FL 33830",-81.84424911381562,27.918843799999998,72
Bascom Palmer Eye Institute,"Miami, Florida, United States",-80.1936589,25.7742658,56
Bay Medical Sacred Heart,"615 N Bonita Ave, Panama City, FL 32401",-85.6482537783041,30.159307300000002,293
Bayfront Health Brooksville,"17240 Cortez Blvd, Brooksville, FL 34601",-82.44307187221673,28.5391704,244
Bayfront Health Port Charlotte,"2500 Harbor Blvd, Port Charlotte, FL 33952",-82.09510242327573,26.99081975,254
Bayfront Health Punta Gorda,"809 E Marion Ave, Punta Gorda, FL 33950",,,176
Bayfront Health Seven Rivers,"6201 N Suncoast Blvd, Crystal River, FL 34428",,,128
Bayfront Health Spring Hill,"10461 Quality Dr, Spring Hill, FL 34609",-82.54036743024992,28.4372987,88
Bayfront Health St. Petersburg,"701 6th St S, St. Petersburg, FL 33701",-82.64319615168301,27.76340595,358
Bethesda Hospital East,"2815 S Seacrest Blvd, Boynton Beach, FL 33435",-80.07016956595065,26.5046724,467
Blake Medical Center,"2020 59th St W, Bradenton, FL 34209",-82.62255125971575,27.4821165,383
Boca Raton Regional Hospital,"800 Meadows Rd, Boca Raton, FL 33486",,,370
Brandon Regional Hospital,"119 Oakfield Dr, Brandon, FL 33511",-82.2875044,27.932839100000002,418
Broward Health Coral Springs,"3000 Coral Hills Dr, Coral Springs, FL 33065",-80.25570279413981,26.26906575,196
Broward Health Imperial Point,"6401 N Federal Hwy, Fort Lauderdale, FL 33308",-80.1372619,26.124338,174
Broward Health Medical Center,"1600 S Andrews Ave, Fort Lauderdale, FL 33316",-80.14116690277424,26.102730299999997,632
Broward Health North,"201 E Sample Rd, Pompano Beach, FL 33064",-80.100032,26.2755255,334
Cape Coral Hospital,"636 Del Prado Blvd S, Cape Coral, FL 33990",-81.94327389128298,26.63949695,280
Capital Regional Medical Center,"2626 Capital Medical Blvd, Tallahassee, FL 32308",-84.23138685402378,30.47617245,266
Central Florida Regional Hospital,"1401 W Seminole Blvd, Sanford, FL 32771",,,221
Citrus Memorial Hospital,"502 W Highland Blvd, Inverness, FL 34452",-82.3353201234022,28.833350699999997,204
Cleveland Clinic in Florida - Weston,"2950 Cleveland Clinic Blvd, Weston, FL 33331",-80.36525557266879,26.08183545,206
Cleveland Clinic Indian River Hospital,"1000 36th St, Vero Beach, FL 32960",-80.39444526944459,27.659074699999998,332
Cleveland Clinic Martin Medical Center,"200 SE Hospital Ave, Stuart, FL 34994",-80.24301,27.197503,521
Coral Gables Hospital,"3100 Douglas Rd, Coral Gables, FL 33134",-80.254016,25.73333,245
Delray Medical Center,"5352 Linton Blvd, Delray Beach, FL 33484",-80.12702270634952,26.436368350000002,512
Doctors Hospital,,,,281
Doctors Hospital of Sarasota,"5731 Bee Ridge Rd, Sarasota, FL 34233",-82.45364543448747,27.30172495,155
Ed Fraser Memorial Hospital,"159 N 3rd St, Macclenny, FL 32063",-82.118840845855,30.28580145,89
Englewood Community Hospital,"700 Medical Blvd, Englewood, FL 34223",-82.32661361096957,26.950073600000003,100
Fawcett Memorial Hospital,"21298 Olean Blvd, Port Charlotte, FL 33952",-82.09866797143651,26.98878335,237
Flagler Hospital,"400 Health Park Blvd, St. Augustine, FL 32086",,,335
Florida Medical Center,"5000 W Oakland Park Blvd, Fort Lauderdale, FL 33313",-80.21822538883694,26.162350500000002,434
Florida State Hospital,"100 N Main St, Chattahoochee, FL 32324",-84.83297527965331,30.7058768,58
Fort Walton Beach Medical Center,"1000 Mar Walt Dr, Fort Walton Beach, FL 32547",,,267
Good Samaritan Medical Center,"235 N Pearl St, Brockton, MA 02301",-71.0618812,42.0972167,333
Gulf Breeze Hospital,"1110 Gulf Breeze Pkwy, Gulf Breeze, FL 32561",-87.15624152645364,30.360656849999998,65
Gulf Coast Medical Center,,,,356
Gulf Coast Regional Medical Center,"449 W 23rd St, Panama City, FL 32405",-85.66501823121078,30.1870842,222
Halifax Health Medical Center of Daytona Beach,"303 N Clyde Morris Blvd, Daytona Beach, FL 32114",-81.05413869094227,29.20140485,544
Health Central Hospital,"10000 W Colonial Dr, Ocoee, FL 34761",-81.52549925417982,28.5493465,211
Health First Cape Canaveral Hospital,"701 W Cocoa Beach Causeway, Cocoa Beach, FL 32931",-80.6231546853926,28.3596351,150
Health First Holmes Regional Medical Center,"1350 Hickory St, Melbourne, FL 32901",-80.6137318,28.0878714,514
Hialeah Hospital,"651 E 25th St, Hialeah, FL 33013",-80.26862207729306,25.845535650000002,362
Highlands Regional Medical Center,"5000 KY-321, Prestonsburg, KY 41653",-82.76830812909793,37.728760949999995,110
Holy Cross Hospital,"1500 Forest Glen Rd, Silver Spring, MD 20910",-77.027786,39.018295,357
Homestead Hospital,"975 Baptist Way, Homestead, FL 33033",-80.4301822,25.4795752,142
Jackson Hospital,,,,66
Jackson Memorial Hospital,"1611 NW 12th Ave, Miami, FL 33136",-80.21260146013265,25.791670500000002,"1,663"
Jackson South Medical Center,"9333 SW 152nd St, Miami, FL 33157",-80.6094846,25.6224777,192
JFK Medical Center - Main,"5301 S Congress Ave, Atlantis, FL 33462",,,715
JFK Medical Center - North Campus,"2201 45th St, West Palm Beach, FL 33407",-80.0877071660777,26.76166665,229
Jupiter Medical Center,"1210 S Old Dixie Hwy, Jupiter, FL 33458",-80.09658564272712,26.92215735,207
Kendall Regional Medical Center,"11750 SW 40th St, Miami, FL 33175",-80.385023,25.731885,417
Lake City Medical Center,"340 NW Commerce Dr, Lake City, FL 32055",-82.68776989279834,30.18373655,91
Lakeland Regional Health Medical Center,,,,864
Lakeside Medical Center,,,,54
Lakewood Ranch Medical Center,"8330 Lakewood Ranch Blvd, Lakewood Ranch, FL 34202",,,120
Largo Medical Center,"1221 Mercantile Ln, Upper Marlboro, MD 20774",,,363
Largo Medical Center - Indian Rocks Campus,"2025 Indian Rocks Rd, Largo, FL 33774",-82.8245488171388,27.897485500000002,177
Larkin Community Hospital Palm Springs Campus,"1475 W 49th Pl, Hialeah, FL 33012",-80.31210256544753,25.86857835,119
Larkin Community Hospital South Miami,"7031 SW 62nd Ave, South Miami, FL 33143",-80.29311096346885,25.7057985,121
Lawnwood Regional Medical Center & Heart Institute,"1700 S 23rd St, Fort Pierce, FL 34950",-80.34552439338844,27.432239850000002,380
Lee Memorial Hospital,"2776 Cleveland Ave, Fort Myers, FL 33901",-81.8740593,26.6282139,818
Leesburg Regional Medical Center,"600 E Dixie Ave, Leesburg, FL 34748",-81.86828676767676,28.806654606060604,329
Lehigh Regional Medical Center,"1500 Lee Blvd, Lehigh Acres, FL 33936",-81.65951888866994,26.615613600000003,78
Lower Keys Medical Center,"5900 College Rd, Key West, FL 33040",-81.74295990405312,24.5809017,120
Manatee Memorial Hospital,"206 2nd St E, Bradenton, FL 34208",-82.56210715492317,27.49722435,295
Mayo Clinic Hospital in Florida,"4500 San Pablo Rd S, Jacksonville, FL 32224",-81.4375798,30.2859794,277
Mease Countryside Hospital,"3231 McMullen Booth Rd, Safety Harbor, FL 34695",-82.7089787,28.0010469,311
Mease Dunedin Hospital,"601 Main St, Dunedin, FL 34698",-82.78274727746137,28.0131147,112
Medical Center of Trinity,"9330 FL-54, Trinity, FL 34655",-82.6978888,28.2170011,307
Melbourne Regional Medical Center,"250 N Wickham Rd, Melbourne, FL 32935",-80.67442261165098,28.10903225,113
Memorial Hospital,,,,418
Memorial Hospital Miramar,"1901 SW 172nd Ave, Miramar, FL 33029",-80.374669,25.9892694,178
Memorial Hospital of Tampa,"2901 W Swann Ave, Tampa, FL 33609",-82.48940571932953,27.937802750000003,183
Memorial Hospital Pembroke,"7800 Sheridan St, Pembroke Pines, FL 33024",-80.24593214963457,26.029696649999998,301
Memorial Hospital West,"703 N Flamingo Rd, Pembroke Pines, FL 33028",-80.30998155879921,26.013183650000002,486
Memorial Regional Hospital,"8260 Atlee Rd, Mechanicsville, VA 23116",-77.4014392,37.6549909,"1,013"
Mercy Hospital,,,,343
Miami Jewish Health Systems,"5200 NE 2nd Ave, Miami, FL 33137",-80.19308907007704,25.82314155,454
Moffitt Cancer Center,"Tampa, Florida, USA",-82.458444,27.9477595,206
Morton Plant Hospital,"300 Pinellas St, Clearwater, FL 33756",-82.80158397341087,27.952054,710
Morton Plant North Bay Hospital,"6600 Madison St, Port Richey, FL 34652",-82.71424918441082,28.2546984,217
Mount Sinai Medical Center,,,,589
NCH Baker Hospital Downtown,"350 7th St N, Naples, FL 34102",-81.79920687559544,26.1504293,602
North Florida Regional Medical Center,"6500 W Newberry Rd, Gainesville, FL 32605",-82.41084630096364,29.6611946,414
North Okaloosa Medical Center,"151 E Redstone Ave, Crestview, FL 32539",-86.5629508067334,30.735666950000002,110
North Shore Medical Center,,,,748
Northside Hospital & Tampa Bay Heart Institute,,,,221
Northwest Medical Center,,,,228
Oak Hill Hospital,"11375 Cortez Blvd, Brooksville, FL 34613",-82.4775035,28.5340102,280
Ocala Regional Medical Center,"1431 SW 1st Ave, Ocala, FL 34471",-82.13607701728881,29.174981600000002,360
Orange Park Medical Center,"2001 Kingsley Ave, Orange Park, FL 32073",-81.73737692501658,30.16595815,317
Orlando Regional Medical Center,"52 W Underwood St, Orlando, FL 32806",,,"1,593"
Osceola Regional Medical Center,"700 W Oak St, Kissimmee, FL 34741",,,404
Oviedo Medical Center,"8300 Red Bug Lake Rd, Oviedo, FL 32765",-81.2100694,28.6483492,64
Palm Bay Hospital,"1425 Malabar Rd NE, Palm Bay, FL 32907",-80.6416817,27.9988162,138
Palm Beach Gardens Medical Center,"3360 Burns Rd, Palm Beach Gardens, FL 33410",-80.0861832770484,26.82935415,199
Palmetto General Hospital,"2001 W 68th St, Hialeah, FL 33016",-80.324795,25.885214,367
Palms of Pasadena Hospital,"1501 Pasadena Ave S, St. Petersburg, FL 33707",-82.7332783,27.7675214,187
Palms West Hospital,"13001 Southern Blvd, Loxahatchee, FL 33470",,,204
Parrish Medical Center,"951 N Washington Ave, Titusville, FL 32796",-80.8216247266167,28.62946815,210
Physicians Regional - Pine Ridge,"6101 Pine Ridge Rd, Naples, FL 34119",-81.7435243,26.2114396,201
Plantation General Hospital,"401 NW 42nd Ave, Plantation, FL 33317",-80.20522173817618,26.1267125,660
Poinciana Medical Center,"325 Cypress Pkwy, Kissimmee, FL 34759",-81.4455035,28.1473363,76
Putnam Community Medical Center,"611 Zeagler Dr, Palatka, FL 32177",-81.69248199123916,29.64284835,99
Raulerson Hospital,"796 US-441, Okeechobee, FL 34972",-80.83000893877552,27.251482010204082,100
Regional Medical Center Bayonet Point,"14000 Fivay Rd, Hudson, FL 34667",-82.68859446751534,28.361518099999998,290
Rockledge Regional Medical Center,"110 Longwood Ave, Rockledge, FL 32955",-80.72321031255692,28.3352555,298
Saint Anthony's Hospital,"15 Maple Ave, Warwick, NY 10990",-74.35778025348176,41.26144875,358
Saint Cloud Regional Medical Center,"2906 17th St, St Cloud, FL 34769",-81.30333255389823,28.24368745,84
Saint Joseph's Hospital,,,,"1,062"
Saint Lucie Medical Center,"1800 SE Tiffany Ave, Port St. Lucie, FL 34952",-80.29420308952785,27.288805449999998,229
Saint Mary's Medical Center,,,,460
Saint Petersburg General Hospital,"6500 38th Ave N, St. Petersburg, FL 33710",-82.72641043233625,27.8052244,168
Santa Rosa Medical Center,"6002 Berryhill Rd, Milton, FL 32570",-87.06701811670575,30.63359995,108
Sarasota Memorial Hospital,"1700 S Tamiami Trail, Sarasota, FL 34239",,,766
Sebastian River Medical Center,"13695 US-1, Sebastian, FL 32958",-80.48736447009304,27.842748181340568,154
Shands Lake Shore Regional Medical Center,"368 NE Franklin St, Lake City, FL 32055",-82.63245322451573,30.19319315,87
South Bay Hospital,"4016 Sun City Center Blvd, Sun City Center, FL 33573",-82.365436795336,27.7143394,138
South Florida Baptist Hospital,"301 N Alexander St, Plant City, FL 33563",-82.13898479424014,28.0159622,147
South Lake Hospital,"1900 Don Wickham Dr, Clermont, FL 34711",-81.72014000684489,28.55246205,170
South Miami Hospital,"6200 SW 73rd St, Miami, FL 33143",-80.294339,25.703958,436
Tallahassee Memorial Healthcare,"1300 Miccosukee Rd, Tallahassee, FL 32308",-84.26103821261236,30.457571350000002,475
Tampa Community Hospital,"6001 Webb Rd, Tampa, FL 33615",-82.57378935015973,28.002297249999998,201
Tampa General Hospital,"1 Tampa General Cir, Tampa, FL 33606",-82.45889586502793,27.9375006,979
The Villages Regional Hospital,"1451 El Camino Real, The Villages, FL 32159",-81.95853794286018,28.95069205,307
Twin Cities Hospital,"2190 FL-85 N, Niceville, FL 32578",-86.4935278,30.5230959,65
UF Health Jacksonville,,,,589
UF Health Shands Florida,"1515 SW Archer Rd, Gainesville, FL 32608",,,"1,050"
UHealth Tower,"1400 NW 12th Ave, Miami, FL 33136",-80.21634329983834,25.78841925,524
University Hospital and Medical Center,,,,305
Venice Regional Bayfront Health,"540 The Rialto, Venice, FL 34285",-82.44529849327122,27.09060435,229
Viera Hospital,"8745 N Wickham Rd, Melbourne, FL 32940",-80.6719318,28.189469,84
Wellington Regional Medical Center,"10101 Forest Hill Blvd, Wellington, FL 33414",-80.20502425249751,26.652634550000002,233
West Boca Medical Center,"21644 FL-7, Boca Raton, FL 33428",,,194
West Florida Hospital,"8383 N Davis Hwy, Pensacola, FL 32514",-87.21905495569862,30.51475165,397
West Kendall Baptist Hospital,"9555 SW 162nd Ave, Miami, FL 33196",-80.4554579,25.6785767,133
Westchester General Hospital,"2500 SW 75th Ave, Miami, FL 33155",-80.31770024209867,25.74730525,125
Westside Regional Medical Center,"8201 W Broward Blvd, Plantation, FL 33324",-80.25956941432699,26.124855949999997,224
Winter Haven Hospital,,,,476
Emory Hillandale Hospital,"2801 Dekalb Medical Pkwy, Lithonia, GA 30058",,,90
AdventHealth Gordon,"1035 Red Bud Rd NE, Calhoun, GA 30701",-84.92043182441547,34.51172892929249,69
Appling Hospital,"163 E Tollison St, Baxley, GA 31513",-82.35648095302014,31.7691242147651,165
Archbold Medical Center,,,,328
Augusta University Medical Center,"1120 15th St, Augusta, GA 30912",-81.98981674626567,33.471100050000004,466
Candler Hospital,"5353 Reynolds St, Savannah, GA 31405",-81.09962094498133,32.0285179,246
Cartersville Medical Center,"960 Joe Frank Harris Pkwy SE, Cartersville, GA 30120",-84.788983,34.1619098,119
Coffee Regional Medical Center,"1101 Ocilla Rd, Douglas, GA 31533",-82.8641126090215,31.51083115,86
Coliseum Medical Center,"350 Hospital Dr, Macon, GA 31217",-83.61895753681938,32.8466491,250
Coliseum Northside Hospital,"400 Charter Blvd, Macon, GA 31210",-83.69445191628091,32.87147215,85
Colquitt Regional Medical Center,"3131 S Main St, Moultrie, GA 31768",-83.78031517679779,31.12605395,94
Crisp Regional Hospital,"902 7th St N, Cordele, GA 31015",-83.78126826966952,31.97761035,208
Doctors Hospital of Augusta,"3651 Wheeler Rd, Augusta, GA 30909",-82.09452364191654,33.4864304,288
Donalsonville Hospital,"102 Hospital Cir, Donalsonville, GA 39845",,,140
Dorminy Medical Center,"200 Perry House Rd, Fitzgerald, GA 31750",-83.25990618109964,31.69736595,60
East Georgia Regional Medical Center,"1499 Fair Rd, Statesboro, GA 30458",-81.77036096209685,32.414787950000004,142
Eastside Medical Center,,,,287
Elbert Memorial Hospital,"4 Medical Dr, Elberton, GA 30635",-82.87502380241929,34.11364035,52
Emanuel Medical Center,"117 Kight Rd, Swainsboro, GA 30401",,,109
Emory Decatur Hospital,"2701 N Decatur Rd, Decatur, GA 30033",-84.28263311282058,33.791343499999996,422
Emory Johns Creek Hospital,"6325 Hospital Pkwy, Johns Creek, GA 30097",-84.1761616011226,34.0668824,118
Emory Saint Joseph's Hospital,"5665 Peachtree Dunwoody Rd, Atlanta, GA 30342",-84.3581125,33.8551352,274
Emory University Hospital,"1364 Clifton Rd, Atlanta, GA 30322",,,622
Emory University Hospital at Wesley Woods,"1821 E Clifton Rd NE, Atlanta, GA 30329",,,71
Emory University Hospital Midtown,"550 Peachtree St NE, Atlanta, GA 30308",-84.38627948695799,33.77019035,475
Evans Memorial Hospital,"200 N River St, Claxton, GA 30417",-81.89895937004405,32.1662577,59
Fairview Park Hospital,"200 Industrial Blvd, Dublin, GA 31021",-82.95016704921808,32.5320682,160
Floyd Medical Center,"304 Turner McCall Blvd, Rome, GA 30165",-85.17835060968241,34.25913855,299
Grady Memorial Hospital,"80 Jesse Hill Jr Dr SE, Atlanta, GA 30303",,,974
Habersham Medical Center,"541 Historic Hwy #441-N, Demorest, GA 30535",,,137
Hamilton Medical Center,,,,264
Houston Medical Center,"1601 Watson Blvd, Warner Robins, GA 31093",-83.63073654123762,32.6166157,237
Irwin County Hospital,"710 N Irwin Ave, Ocilla, GA 31774",-83.25133997686612,31.60330305,64
Meadows Regional Medical Center,"1 Meadows Pkwy, Vidalia, GA 30474",,,52
Medical Center Navicent Health,"777 Hemlock St, Macon, GA 31201",-83.6362914,32.834028,610
Memorial Hospital and Manor,"1500 E Shotwell St, Bainbridge, GA 39819",-84.55225509983677,30.902932,187
Memorial Satilla Health,"1900 Tebeau St, Waycross, GA 31501",-82.34789554409258,31.22425015,159
Memorial University Medical Center,"4700 Waters Ave, Savannah, GA 31404",-81.08745979427688,32.03050465,535
Navicent Health Baldwin,"821 N Cobb St, Milledgeville, GA 31061",-83.24592310689115,33.0896823,113
Northeast Georgia Medical Center Barrow,"316 N Broad St, Winder, GA 30680",-83.70764047118459,34.00742665,56
Northeast Georgia Medical Center Gainesville,"743 Spring St NE, Gainesville, GA 30501",-83.81623159546541,34.3044194,884
Northridge Medical Center,,,,195
Northside Hospital Atlanta,"1000 Johnson Ferry Rd NE, Atlanta, GA 30342",,,536
Northside Hospital Cherokee,"450 Northside Cherokee Blvd, Canton, GA 30115",-84.46471166207907,34.22885345,114
Northside Hospital Forsyth,"1200 Northside Forsyth Dr, Cumming, GA 30041",-84.14098574536418,34.177910100000005,299
Northside Hospital Gwinnett,"1000 Medical Center Blvd, Lawrenceville, GA 30046",-84.0169666555647,33.96318035,556
Phoebe Putney Memorial Hospital,"417 W 3rd Ave, Albany, GA 31701",-84.15758867013469,31.59042535,449
Phoebe Putney Memorial Hospital North Campus,"2000 Palmyra Rd, Albany, GA 31701",-84.16962276240503,31.607014200000002,124
Phoebe Sumter Medical Center,"126 US-280, Americus, GA 31719",,,54
Piedmont Athens Regional Medical Center,"1199 Prince Ave, Athens, GA 30606",-83.39943444142736,33.960669249999995,357
Piedmont Atlanta Hospital,"1968 Peachtree Rd NW, Atlanta, GA 30309",,,512
Piedmont Columbus Regional - Midtown Campus,"710 Center St, Columbus, GA 31901",-84.98188513690815,32.48051245,334
Piedmont Columbus Regional - Northside,"100 Frist Ct, Columbus, GA 31909",-84.95122471993574,32.534974649999995,87
Piedmont Fayette Hospital,"1255 GA-54, Fayetteville, GA 30214",-84.5078021547979,33.45314975,290
Piedmont Henry Hospital,"1133 Eagle's Landing Parkway, Stockbridge, GA 30281",-84.22713718376326,33.5112611,341
Piedmont Mountainside Hospital,"1266 GA-515, Jasper, GA 30143",,,52
Piedmont Newnan Hospital,"745 Poplar Rd, Newnan, GA 30265",-84.75557048453581,33.357559800000004,150
Piedmont Newton Hospital,"5126 Hospital Dr NE, Covington, GA 30014",-83.84776156238493,33.601406350000005,94
Piedmont Rockdale Hospital,"1412 Milstead Ave NE, Conyers, GA 30012",-84.00170091366446,33.681120449999995,141
Piedmont Walton,"2151 W Spring St, Monroe, GA 30655",-83.750001905989,33.798994199999996,76
Redmond Regional Medical Center,"501 Redmond Rd, Rome, GA 30165",-85.19610929187783,34.27712244999999,228
Saint Francis Hospital,,,,325
Saint Joseph's Hospital,,,,243
Saint Mary's Sacred Heart Hospital,"367 Clear Creek Dr, Lavonia, GA 30553",,,56
SGMC Berrien Campus,"1221 E Mcpherson Ave, Nashville, GA 31639",-83.23870835162728,31.2026956,63
South Georgia Medical Center,"2501 N Patterson St, Valdosta, GA 31602",-83.2866268389582,30.8614322,288
Southeast Georgia Health System - Brunswick Campus,"2415 Parkwood Dr, Brunswick, GA 31520",-81.48482528644345,31.175760150000002,300
Southern Regional Medical Center,"11 Upper Riverdale Rd, Riverdale, GA 30274",-84.38941375,33.577753625,264
Southwell Medical,"260 M J Taylor Rd, Adel, GA 31620",-83.427137,31.083056,140
St. Mary's Hospital,,,,185
Stephens County Hospital,"163 Hospital Rd, Toccoa, GA 30577",,,74
Tanner Medical Center Carrollton,"705 Dixie St, Carrollton, GA 30117",-85.07421665002563,33.5697284,157
Tanner Medical Center Villa Rica,"601 Dallas Hwy, Villa Rica, GA 30180",-84.9164803348259,33.74539685,132
Taylor Regional Hospital,"1700 Old Lebanon Rd, Campbellsville, KY 42718",-85.33695272021647,37.36658575,157
Tift Regional Medical Center,"901 18th St, Tifton, GA 31794",-83.5016043,31.4701312,181
Turning Point Care Center,,,,59
Union General Hospital,"35 Hospital Rd, Blairsville, GA 30512",,,189
University Hospital,,,,574
University Hospital Summerville,"2260 Wrightsboro Rd, Augusta, GA 30904",-82.01761137895278,33.4663468,156
Upson Regional Medical Center,"801 W Gordon St, Thomaston, GA 30286",-84.3363940917011,32.88590945,105
Washington County Regional Medical Center,"610 Sparta Rd, Sandersville, GA 31082",-82.80443469527012,32.995576799999995,116
Wayne Memorial Hospital,"601 Park St #1445, Honesdale, PA 18431",,,88
WellStar Atlanta Medical Center,"303 Parkway Dr NE, Atlanta, GA 30312",-84.37309675572769,33.762858449999996,528
WellStar Atlanta Medical Center - South Campus,"1170 Cleveland Ave, East Point, GA 30344",,,198
WellStar Cobb Hospital,"3950 Austell Rd SW, Austell, GA 30106",,,387
WellStar Douglas Hospital,"8954 Hospital Dr, Douglasville, GA 30134",-84.73181925810573,33.738904250000004,102
WellStar Kennestone Hospital,"677 Church St, Marietta, GA 30060",-84.5529050296956,33.96859775,662
WellStar North Fulton Regional Hospital,"3000 Hospital Blvd, Roswell, GA 30076",-84.3201691339044,34.063138050000006,202
WellStar Paulding Hospital,"2518 Jimmy Lee Smith Pkwy, Hiram, GA 30141",-84.78102344628695,33.900882249999995,294
WellStar Spalding Regional Hospital,"601 S 8th St, Griffin, GA 30224",-84.26723924985686,33.23896225,160
WellStar West Georgia Medical Center,"1514 Vernon Rd, LaGrange, GA 30240",-85.05866941443857,33.0323566,426
Guam Memorial Hospital Authority,,,,201
Guam Regional Medical City,,,,105
Adventist Health Castle,"640 Ulukahiki St, Kailua, HI 96734",-157.75763453702945,21.38031915,160
Hilo Medical Center,"1190 Waianuenue Ave, Hilo, HI 96720",-155.112381508231,19.71850165,276
Kaiser Permanente Moanalua Medical Center & Clinic,"3288 Moanalua Rd, Honolulu, HI 96819",-157.8997794,21.3633504,295
Kona Community Hospital,"79-1019 Haukapila St, Kealakekua, HI 96750",-155.917583215214,19.51999465,94
Kuakini Medical Center,"347 N Kuakini St, Honolulu, HI 96817",-157.8561111,21.3213889,357
Maui Memorial Medical Center,"221 Mahalani St, Wailuku, HI 96793",-156.48965748601668,20.88465665,219
Pali Momi Medical Center,"98-1079 Moanalua Rd, Aiea, HI 96701",-157.93853,21.383538,118
Straub Medical Center,"888 S King St, Honolulu, HI 96813",-157.85074321746922,21.30269355,159
The Queen's Medical Center,"1301 Punchbowl St, Honolulu, HI 96813",-157.8536760323674,21.30799045,650
Wahiawa General Hospital,"128 Lehua St, Wahiawa, HI 96786",-158.02630805166376,21.4987797,150
Wilcox Memorial Hospital,"3-3420 Kuhio Hwy, Lihue, HI 96766",-159.3719774,21.9759952,72
"Genesis Medical Center, East Rusholme Street","1227 E Rusholme St, Davenport, IA 52803",-90.5567274979721,41.54273445,329
Broadlawns Medical Center,"1801 Hickman Rd, Des Moines, IA 50314",-93.64012686477571,41.6165472,117
CHI Health Mercy Council Bluffs,"800 Mercy Dr, Council Bluffs, IA 51503",-95.8386098,41.2683317,145
Great River Medical Center,"1221 S Gear Ave, West Burlington, IA 52655",-91.17519554464158,40.80939,307
Iowa Lutheran Hospital,"700 E University Ave, Des Moines, IA 50316",-93.6091064,41.6005448,189
Iowa Methodist Medical Center,"1200 Pleasant St, Des Moines, IA 50309",-93.63485195553082,41.5898162,484
Mary Greeley Medical Center,"1111 Duff Ave, Ames, IA 50010",-93.6122776,42.0314169,195
Mercy Iowa City,"500 E Market St, Iowa City, IA 52245",-91.52791774916761,41.663561,218
Mercy Medical Center,,,,243
Mercy Medical Center - North Campus,"345 St Paul Pl, Baltimore, MD 21202",-76.61280493859464,39.2932695,107
MercyOne Des Moines,,,,583
MercyOne Dubuque Medical Center,"250 Mercy Dr, Dubuque, IA 52001",-90.67485089288377,42.4924767,179
MercyOne North Iowa,"1000 4th St SW, Mason City, IA 50401",-93.21602950761468,43.1495247,235
MercyOne Siouxland Medical Center,"801 5th St, Sioux City, IA 51101",-96.40062854714563,42.49716375,197
Methodist Jennie Edmundson Hospital,"933 E Pierce St, Council Bluffs, IA 51503",-95.83552771425974,41.26792945,110
Ottumwa Regional Health Center,"1001 E Pennsylvania Ave, Ottumwa, IA 52501",,,120
Saint Anthony Regional Hospital,"311 S Clark St, Carroll, IA 51401",-94.86594781396043,42.0560502,142
Saint Luke's Hospital,,,,343
Spencer Hospital,"1200 1st Ave E, Spencer, IA 51301",-95.14345845923242,43.1492865,64
UnityPoint Health - Allen Hospital,"1825 Logan Ave, Waterloo, IA 50703",-92.34023541295116,42.5268787,199
UnityPoint Health - Finley Hospital,"350 N Grandview Ave, Dubuque, IA 52001",-90.68600303373233,42.49638885,106
UnityPoint Health St. Luke's Regional Medical Center,"2720 Stone Park Blvd, Sioux City, IA 51104",-96.40547726179773,42.5194986,169
UnityPoint Health Trinity - Bettendorf,"4500 Utica Ridge Rd, Bettendorf, IA 52722",-90.51964205723996,41.5658432,87
University of Iowa Hospitals & Clinics,,,,789
Waterloo Medical Center,,,,187
Eastern Idaho Regional Medical Center,"3100 Channing Way, Idaho Falls, ID 83404",-111.99214928362026,43.469880700000004,271
Kootenai Health,,,,297
Madison Memorial Hospital,"450 E Main St, Rexburg, ID 83440",-111.77099717402368,43.826079449999995,67
Portneuf Medical Center,"777 Hospital Way, Pocatello, ID 83201",-112.42095001137989,42.8725109,165
Saint Alphonsus Medical Center - Nampa,"4300 E Flamingo Ave, Nampa, ID 83687",-116.5171771,43.5974945,96
Saint Alphonsus Regional Medical Center,"1055 N Curtis Rd, Boise, ID 83706",-116.25819570202984,43.61360105,378
Saint Joseph Regional Medical Center,"703 Main St, Paterson, NJ 07503",-74.16572618558858,40.90360815,130
St. Luke's Boise Medical Center,"190 E Bannock St, Boise, ID 83712",-116.19290800990316,43.61252845,578
St. Luke's Magic Valley Medical Center,"801 Pole Line Rd W, Twin Falls, ID 83301",-114.49564114998265,42.59032415,214
St. Luke's Nampa Medical Center,"9850 W St Lukes Dr, Nampa, ID 83687",-116.59066844929197,43.6180512,70
West Valley Medical Center,"1717 Arlington Ave, Caldwell, ID 83605",-116.69436267433957,43.65389265,112
Carle Richland Memorial Hospital,"800 E Locust St, Olney, IL 62450",-88.0774343194264,38.73672175,81
Northwestern Medicine Kishwaukee Hospital,"1 Kish Hospital Dr, DeKalb, IL 60115",,,98
Advocate BroMenn Regional Medical Center,,,,221
Advocate Christ Medical Center,"4440 W 95th St, Oak Lawn, IL 60453",-87.732089,41.7235705,777
Advocate Condell Medical Center,"801 S Milwaukee Ave, Libertyville, IL 60048",-87.95779912787543,42.273795,273
Advocate Good Samaritan Hospital,"3815 Highland Ave, Downers Grove, IL 60515",-88.00833511262515,41.8200584,284
Advocate Good Shepherd Hospital,"450 IL-22, Barrington, IL 60010",-88.1361888,42.1539141,176
Advocate Illinois Masonic Medical Center,"836 W Wellington Ave, Chicago, IL 60657",-87.65126429085905,41.93675815,311
Advocate Lutheran General Hospital,"1775 Dempster Street, Park Ridge, IL 60068",,,629
Advocate Sherman Hospital,"1425 N Randall Rd, Elgin, IL 60123",-88.3311591326983,42.06992555,255
Advocate South Suburban Hospital,"17800 Kedzie Ave, Hazel Crest, IL 60429",-87.694445,41.566781,233
Advocate Trinity Hospital,"2320 E 93rd St, Chicago, IL 60617",-87.56696931921603,41.72643515,201
Alton Memorial Hospital,"1 Memorial Dr, Alton, IL 62002",-90.1600797488295,38.89992355,152
AMITA Health Adventist GlenOaks Hospital,"701 Winthrop Ave, Glendale Heights, IL 60139",-88.05713494713203,41.9149461,138
AMITA Health Adventist Medical Center Bolingbrook,"500 Remington Blvd, Bolingbrook, IL 60440",-88.08459364354908,41.68143085,134
AMITA Health Adventist Medical Center Hinsdale,"120 N Oak St, Hinsdale, IL 60521",-87.92130925685609,41.805683,261
AMITA Health Adventist Medical Center La Grange,"5101 Willow Springs Rd, La Grange, IL 60525",-87.888355,41.797224,176
AMITA Health Alexian Brothers Medical Center Elk Grove Village,"800 Biesterfield Rd, Elk Grove Village, IL 60007",-88.0160185526135,42.00500715,354
AMITA Health Mercy Medical Center Aurora,"1325 N Highland Ave, Aurora, IL 60506",-88.32472868114931,41.787037049999995,256
AMITA Health Resurrection Medical Center Chicago,"7435 W Talcott Ave, Chicago, IL 60631",-87.81462388174296,41.9884148,274
AMITA Health Saint Francis Hospital Evanston,"355 Ridge Ave, Evanston, IL 60202",-87.68338109068567,42.0247437,181
AMITA Health Saint Joseph Hospital Chicago,"2900 N Lake Shore Dr, Chicago, IL 60657",-87.6373470699741,41.934971899999994,313
AMITA Health Saint Joseph Hospital Elgin,"77 N Airlite St, Elgin, IL 60123",-88.32583817601395,42.0353849,184
AMITA Health Saint Joseph Medical Center Joliet,"333 North Madison St, Joliet, IL 60435",-88.13474171947284,41.527993139900765,424
AMITA Health Saints Mary and Elizabeth Medical Center Saint Elizabeth Campus,"1431 N Claremont Ave, Chicago, IL 60622",-87.68545862635482,41.9074568,219
AMITA Health Saints Mary and Elizabeth Medical Center Saint Mary Campus,,,,429
AMITA Health St. Alexius Medical Center Hoffman Estates,"1555 Barrington Rd, Hoffman Estates, IL 60169",,,318
AMITA Health St. Marys Hospital Kankakee,"500 W Court St, Kankakee, IL 60901",-87.87180942100551,41.12100695,169
Anderson Hospital,,,,154
Blessing Hospital,"1005 Broadway St, Quincy, IL 62301",-91.39979405102041,39.935519285714285,327
Cancer Treatment Centers of America Chicago,"160 E Illinois St, Chicago, IL 60611",-87.62301437857143,41.8911972,73
Carle Foundation Hospital,"Urbana, Illinois, United States",-88.207301,40.1117174,411
CGH Medical Center,"100 E Le Fevre Rd, Sterling, IL 61081",-89.696631404395,41.803874199999996,96
Community First Medical Center,"5645 W Addison St, Chicago, IL 60634",-87.76796015049862,41.94542825,279
Decatur Memorial Hospital,"2300 N Edward St, Decatur, IL 62526",-88.96155668935181,39.86781585,222
Edward Hospital,"801 S Washington St, Naperville, IL 60540",-88.15263921467218,41.7600377,298
Elmhurst Hospital,,,,282
Evanston Hospital,"2650 Ridge Ave, Evanston, IL 60201",-87.68429042105146,42.066131999999996,751
FHN Memorial Hospital,"1045 W Stephenson St, Freeport, IL 61032",-89.6392162584055,42.295035799999994,100
Franciscan Health Olympia Fields Campus,,,,206
Galesburg Cottage Hospital,"695 N Kellogg St, Galesburg, IL 61401",-90.36539289380613,40.9562967,112
Gateway Regional Medical Center,"2100 Madison Ave, Granite City, IL 62040",-90.14345191532023,38.700435999999996,305
Genesis Medical Center Silvis,"801 Illini Dr, Silvis, IL 61282",-90.41847346633983,41.49438705,265
Graham Hospital,,,,81
Harrisburg Medical Center,"100 Dr Warren Tuttle Dr, Harrisburg, IL 62946",,,70
Heartland Regional Medical Center,"2700 W Deyoung St, Marion, IL 62959",-88.96972637998186,37.74316484354801,94
Herrin Hospital,"201 S 14th St, Herrin, IL 62948",-89.02645003547343,37.800689250000005,114
Holy Cross Hospital,"1500 Forest Glen Rd, Silver Spring, MD 20910",-77.027786,39.018295,221
HSHS Saint Anthony's Memorial Hospital,"503 N Maple St, Effingham, IL 62401",-88.55037577177933,39.1248751,133
HSHS Saint Elizabeth's Hospital,"1 St Elizabeth's Blvd, O'Fallon, IL 62269",-89.933331,38.58259,144
HSHS Saint John's Hospital,"800 E Carpenter St, Springfield, IL 62769",-89.64490006253314,39.8054159,369
HSHS Saint Mary's Hospital,,,,207
Iroquois Memorial Hospital,"200 E Fairman Ave, Watseka, IL 60970",-87.73182547827145,40.7667394,60
Jackson Park Hospital,"7531 S Stony Island Ave, Chicago, IL 60649",-87.58422801819168,41.75678605,201
Javon Bea Hospital Rockton,"2400 N Rockton Ave, Rockford, IL 61103",-89.09870720374843,42.29832375,292
"John H. Stroger, Jr. Hospital of Cook County","1969 Ogden Ave, Chicago, IL 60612",,,448
Katherine Shaw Bethea Hospital,"403 E 1st St, Dixon, IL 61021",-89.47971125784645,41.84449635,80
Loretto Hospital,"645 S Central Ave, Chicago, IL 60644",-87.76244753407695,41.87236705,122
Loyola Gottlieb Memorial Hospital,"701 W North Ave, Melrose Park, IL 60160",,,191
Loyola University Medical Center,"2160 S 1st Ave, Maywood, IL 60153",-87.83524274972845,41.85901495,515
MacNeal Hospital,"3249 S Oak Park Ave, Berwyn, IL 60402",-87.7926802,41.8321563,318
McDonough District Hospital,"525 E Grant St, Macomb, IL 61455",-90.66463939351338,40.44562105,57
Memorial Hospital Belleville,"4500 Memorial Dr, Belleville, IL 62226",-90.0214708,38.5490423,294
Memorial Hospital East,"1404 Cross St, Shiloh, IL 62269",-89.90532448442812,38.57320355,94
Memorial Hospital of Carbondale,"405 W Jackson St, Carbondale, IL 62901",-89.218724,37.7280534,167
Memorial Medical Center,,,,466
Mercy Hospital & Medical Center,,,,258
Methodist Hospital of Chicago,"5025 N Paulina St, Chicago, IL 60640",-87.67107256565596,41.972830099999996,145
Morris Hospital,"150 W High St, Morris, IL 60450",-88.42701516259947,41.3699631,89
Mount Sinai Hospital,"1468 Madison Ave, New York, NY 10029",-73.9520975,40.7903112,264
Northwest Community Hospital,"800 W Central Rd, Arlington Heights, IL 60005",-87.99289102900977,42.068878749999996,481
Northwestern Medicine Central DuPage Hospital,"25 N Winfield Rd, Winfield, IL 60190",-88.15574220128873,41.8735075,395
Northwestern Medicine Delnor Hospital,"300 Randall Rd, Geneva, IL 60134",-88.34395886700013,41.8859164,144
Northwestern Medicine Lake Forest Hospital,"1000 N Westmoreland Rd, Lake Forest, IL 60045",-87.86438086629771,42.257890113324294,114
Northwestern Medicine McHenry Hospital,"4201 W Medical Center Dr, McHenry, IL 60050",-88.27556616375779,42.318290817171565,286
Northwestern Memorial Hospital,"251 E Huron St, Chicago, IL 60611",-87.6215362422612,41.894981349999995,912
Norwegian American Hospital,"1044 N Francisco Ave, Chicago, IL 60622",-87.7003333,41.9003101,185
OSF Heart of Mary Medical Center,"1400 W Park St, Urbana, IL 61801",-88.22707006874484,40.11819445,194
OSF Little Company of Mary Medical Center,"2800 95th St, Evergreen Park, IL 60805",,,244
OSF Sacred Heart Medical Center,"812 N Logan Ave, Danville, IL 61832",-87.64621226124457,40.13750215,157
OSF Saint Anthony Medical Center,"5666 E State St, Rockford, IL 61107",-89.00633047933252,42.26604002154777,248
OSF Saint Anthony's Health Center,"1 St Anthonys Way, Alton, IL 62002",-90.17321083939663,38.908275849999995,78
OSF Saint Elizabeth Medical Center,"1100 E Norris Dr, Ottawa, IL 61350",-88.82403906412054,41.3569916,97
OSF Saint Francis Medical Center,,,,655
OSF Saint Joseph Medical Center,"2200 E Washington St, Bloomington, IL 61701",-88.95546152109512,40.48249705,149
OSF Saint Mary Medical Center,"3333 N Seminary St, Galesburg, IL 61401",-90.36114865813516,40.98716815,81
Palos Hospital,"12251 S 80th Ave, Palos Heights, IL 60463",-87.81311192623662,41.6689975,413
Passavant Area Hospital,"1600 W Walnut St, Jacksonville, IL 62650",-90.25969018687577,39.747153850000004,118
Riverside Medical Center,,,,335
Roseland Community Hospital,"45 W 111th St, Chicago, IL 60628",-87.62494155027585,41.692759249999995,134
Rush Oak Park Hospital,,,,201
Rush University Medical Center,"1620 W Harrison St, Chicago, IL 60612",-87.6868422,41.8738853,697
Rush-Copley Medical Center,"2000 Ogden Ave, Aurora, IL 60504",-88.2714131181931,41.728801,210
Saint Anthony Hospital,,,,151
Saint Bernard Hospital and Health Care Center,"326 W 64th St, Chicago, IL 60621",-87.6330563253586,41.778591399999996,190
Sarah Bush Lincoln Health Center,"1000 Health Center Dr, Mattoon, IL 61938",,,102
Silver Cross Hospital,"1900 Silver Cross Blvd, New Lenox, IL 60451",-87.98361069229117,41.5437739,302
Skokie Hospital,"9600 Gross Point Rd, Skokie, IL 60076",-87.74037744833893,42.0563106,156
South Shore Hospital,"55 Fogg Rd, South Weymouth, MA 02190",-70.95391432574807,42.17553705,137
SSM Health Good Samaritan Hospital - Mount Vernon,"1 Good Samaritan Way, Mt Vernon, IL 62864",,,134
SSM Health Saint Mary's Hospital-Centralia,"400 N Pleasant Ave, Centralia, IL 62801",-89.11797895089154,38.53042285,106
Swedish Hospital,"5140 N California Ave, Chicago, IL 60625",-87.6990113559385,41.9751972581893,306
SwedishAmerican Hospital,"1401 E State St, Rockford, IL 61104",-89.07431508707822,42.265438,313
The University of Chicago Medical Center,"5841 S Maryland Ave, Chicago, IL 60637",-87.6045824,41.7883423,682
Thorek Memorial Hospital,"850 Irving Park Rd, Chicago, IL 60613",-87.8992822,41.9510737,156
Touchette Regional Hospital,"5900 Bond Ave, Centreville, IL 62207",-90.10842912165728,38.5700241,122
UChcago Medicine Ingalls Memorial Hospital,"1 Ingalls Dr, Harvey, IL 60426",-87.65924575160255,41.607189250000005,326
UnityPoint Health - Methodist,"221 NE Glen Oak Ave, Peoria, IL 61636",-89.59544998416077,40.699796500000005,280
UnityPoint Health - Pekin,,,,107
UnityPoint Health - Proctor,,,,170
UnityPoint Health Trinity - Rock Island,"2701 17th St, Rock Island, IL 61201",-90.57003558093277,41.48317135,348
University of Illinois Medical Center,"1740 W Taylor St, Chicago, IL 60612",-87.67051716128074,41.86969555,484
Vista Medical Center East,"1324 N Sheridan Rd, Waukegan, IL 60085",-87.8323622177945,42.3781565,190
Weiss Memorial Hospital,"4646 N Marine Dr, Chicago, IL 60640",-87.64955593708869,41.96692645,144
West Suburban Medical Center,"3 Erie St, Oak Park, IL 60302",-87.8027369,41.8918622,174
Ascension Saint Vincent Carmel,"13500 N Meridian St, Carmel, IN 46032",-86.14595489083862,39.9821348,153
Ascension Saint Vincent Evansville,"3700 Washington Ave, Evansville, IN 47714",-87.50416259718992,37.9657196,438
Ascension Saint Vincent Indianapolis Hospital,"8402 Harcourt Rd # 501, Indianapolis, IN 46260",,,825
Ascension St. Vincent Carmel,"13500 N Meridian St, Carmel, IN 46032",-86.14595489083862,39.9821348,107
Ascension St. Vincent Kokomo,"1907 W Sycamore St, Kokomo, IN 46901",-86.15709049576701,40.485335000000006,129
Baptist Health Floyd,"1850 State St, New Albany, IN 47150",-85.83365108563402,38.3012356,225
Bluffton Regional Medical Center,"303 S Main St, Bluffton, IN 46714",-85.17083680105787,40.7374197,75
Clark Memorial Hospital,"1220 Missouri Ave, Jeffersonville, IN 47130",-85.74935233823837,38.281978,168
Columbus Regional Hospital,,,,229
Community Heart And Vascular Hospital,"8075 Shadeland Ave, Indianapolis, IN 46250",-86.045294,39.773844,56
Community Hospital,,,,464
Community Hospital Anderson,"1515 N Madison Ave, Anderson, IN 46011",-85.6953678436615,40.1315282,134
Community Hospital East,"1500 N Ritter Ave, Indianapolis, IN 46219",-86.07563097482306,39.7870564,305
Community Hospital North,"7150 Clearvista Dr, Indianapolis, IN 46256",-86.04089111289873,39.9010217,298
Community Hospital South,"1402 E County Line Rd, Indianapolis, IN 46227",-86.458889,39.63009,169
Community Howard Regional Health,"3500 S Lafountain St, Kokomo, IN 46902",-86.1243465438084,40.446996049999996,109
Danville Hospital Main Campus,"100 N Academy Ave, Danville, PA 17822",,,133
Daviess Community Hospital,"1314 E Walnut St, Washington, IN 47501",-87.15976061477349,38.65937665,74
Deaconess Midtown Hospital,"600 Mary St, Evansville, IN 47710",-87.57142630334626,37.98385435,547
Dupont Hospital,,,,131
Elkhart General Hospital,"600 East Blvd, Elkhart, IN 46514",-85.99345506913818,41.6788543,230
Fairbanks Hospital,"8102 Clearvista Pkwy, Indianapolis, IN 46256",-86.039653,39.90500907785751,86
Franciscan Health Indianapolis,,,,462
Franciscan Health Lafayette Central,"1501 Hartford St, Lafayette, IN 47904",-86.88029781225563,40.42828555,94
Franciscan Health Lafayette East,"1701 S Creasy Ln, Lafayette, IN 47905",-86.83494288909364,40.39402415,203
Franciscan Health Hammond,"5454 Hohman Ave, Hammond, IN 46320",-87.52358306366563,41.61455655,226
Franciscan Health Michigan City,"3500 Franciscan Way, Michigan City, IN 46360",,,183
Franciscan Health Mooresville Campus,"1201 Hadley Rd, Mooresville, IN 46158",-86.35571359811001,39.6071477,83
Franciscan Health Munster,,,,63
Franciscan Health Crown Point,,,,214
Franciscan Health Dyer Campus,"24 Joliet St, Dyer, IN 46311",-87.52536964004156,41.492244549999995,170
Good Samaritan Hospital,"5601 Loch Raven Blvd, Baltimore, MD 21239",-76.58584727178213,39.3575548,144
Goshen Hospital,"200 High Park Ave, Goshen, IN 46526",-85.83034144912776,41.56389085,122
Hancock Regional Hospital,"801 N State St, Greenfield, IN 46140",-85.76743396214428,39.79473585,71
Highpoint Health,"600 Wilson Creek Rd, Lawrenceburg, IN 47025",-84.88327854625064,39.11104025,86
IU Health Arnett Hospital,"5165 McCarty Ln, Lafayette, IN 47905",-86.80628292581096,40.40068445,185
IU Health Ball Memorial Hospital,"2401 W University Ave, Muncie, IN 47303",-85.41412138255033,40.19752030201342,336
IU Health Bloomington Hospital,"601 W 2nd St, Bloomington, IN 47403",-86.5735853,39.1473169,270
IU Health Methodist University,,,,"1,262"
IU Health North Hospital,"11700 N Meridian St, Carmel, IN 46032",-86.16027634858844,39.95903765,149
IU Health West Hospital,"1111 N Ronald Reagan Pkwy, Avon, IN 46123",-86.34371066662548,39.78298649292104,127
Johnson Memorial Hospital,,,,94
King's Daughters' Hospital & Health Services,,,,88
Kosciusko Community Hospital,,,,72
La Porte Hospital,"1007 Lincolnway, La Porte, IN 46350",-86.7250547615536,41.6109615,129
Lutheran Hospital,"1730 W 25th St, Cleveland, OH 44113",-81.70692756786158,41.4870038,396
Marion General Hospital,,,,124
Memorial Hospital,,,,435
Memorial Hospital and Health Care Center,"800 W 9th St, Jasper, IN 47546",-86.94098757931755,38.39512575,152
Methodist Hospitals - Northlake Campus,"600 Grant St, Gary, IN 46402",-87.35817424692293,41.5998963,509
Methodist Hospitals - Southlake Campus,"8701 Broadway, Merrillville, IN 46410",-87.33252059824028,41.4580814,319
Parkview Regional Medical Center,"11109 Parkview Plaza Dr Entrance 1, Fort Wayne, IN 46845",,,712
Porter Regional Hospital,"85 E US-6 Frontage Rd, Valparaiso, IN 46383",,,252
Reid Hospital,"1100 Reid Pkwy, Richmond, IN 47374",-84.88470992978156,39.864378099999996,221
Riverview Health Noblesville Hospital,"395 Westfield Rd, Noblesville, IN 46060",-86.02304780688634,40.045309599999996,158
Saint Catherine Hospital,"50 NY-25A, Smithtown, NY 11787",-73.22034675,40.865241,211
Saint Joseph Health Mishawaka Medical Center,"5215 Holy Cross Pkwy, Mishawaka, IN 46545",-86.17383227226665,41.70669515,293
Saint Joseph Hospital,,,,127
Saint Mary Medical Center,"1201 Langhorne-Newtown Road, Langhorne, PA 19047",,,200
Saint Vincent Anderson,"2015 Jackson St, Anderson, IN 46016",-85.68028482619175,40.0959152,157
Saint Vincent Women's Hospital,,,,182
Schneck Medical Center,"411 W Tipton St, Seymour, IN 47274",-85.89181350961489,38.9551568,91
Sidney and Lois Eskenazi Hospital,"720 Eskenazi Ave, Indianapolis, IN 46202",-86.18436603942047,39.77820945,336
Terre Haute Regional Hospital,"3901 S 7th St, Terre Haute, IN 47802",-87.41023716785978,39.418213,195
The Women's Hospital,"3300 Gallows Rd, Falls Church, VA 22042",,,74
Union Hospital,,,,255
Witham Memorial Hospital,"2605 N Lebanon St, Lebanon, IN 46052",-86.47337965634901,40.07743475,96
University of Kansas Health System Saint Francis Campus,"1700 SW 7th St, Topeka, KS 66606",-95.69640263822167,39.05663715,264
AdventHealth Shawnee Mission,"9100 W 74th St, Overland Park, KS 66204",-94.69156070052108,38.99534235,365
Ascension Via Christi Hospital in Manhattan,"1823 College Ave, Manhattan, KS 66502",-96.59966896097194,39.201342749999995,94
Ascension Via Christi Hospital in Pittsburg,"1 Mt Carmel Pl, Pittsburg, KS 66762",-94.687366,37.379905,78
Ascension Via Christi St. Francis,"929 N St Francis St, Wichita, KS 67214",-97.331699,37.705255,658
Ascension Via Christi St. Teresa,"14800 St Teresa St, Wichita, KS 67235",,,57
Coffeyville Regional Medical Center,"1400 W 4th St, Coffeyville, KS 67337",-95.63939969557478,37.041269150000005,67
Hays Medical Center,,,,149
Hutchinson Regional Medical Center,"1701 E 23rd Ave, Hutchinson, KS 67502",-97.89192244539859,38.077257200000005,152
Kansas Medical Center,,,,55
Labette Health,,,,53
Lawrence Memorial Hospital,"365 Montauk Ave, New London, CT 06320",-72.10437888210274,41.3362807,136
Menorah Medical Center,"5721 W 119th St, Overland Park, KS 66209",-94.65159693054947,38.91001905,164
Newton Medical Center,,,,97
Olathe Medical Center,"20333 W 151st St, Olathe, KS 66061",-94.82370508827704,38.85267675,254
Overland Park Regional Medical Center,"10500 Quivira Rd, Overland Park, KS 66215",-94.72593315874786,38.9369489,270
Pratt Regional Medical Center,"200 Commodore St, Pratt, KS 67124",-98.72907165491051,37.64437455,81
Providence Medical Center,"General Surgery Associates LLC, Associates in Family Health Care, P.A.",,,216
Saint Catherine Hospital,"50 NY-25A, Smithtown, NY 11787",-73.22034675,40.865241,100
Saint John Hospital,,,,52
Saint Luke's South Hospital,"12300 Metcalf Ave, Overland Park, KS 66213",-94.66968090917021,38.90339525,95
Salina Regional Health Center,"400 S Santa Fe Ave, Salina, KS 67401",-97.6103762526024,38.832292100000004,203
Southwest Medical Center,,,,89
Stormont Vail Hospital,"1500 SW 10th Ave, Topeka, KS 66604",-95.6963517997523,39.05252835,439
Susan B. Allen Memorial Hospital,"720 W Central Ave, El Dorado, KS 67042",-96.85854667500001,37.8181805,53
The University of Kansas Hospital,"3901 Rainbow Blvd, Kansas City, KS 66160",-94.60953952536904,39.05699635,892
Wesley Medical Center,,,,593
Wesley Woodlawn Hospital & ER,"2610 N Woodlawn Blvd, Wichita, KS 67220",-97.26024722328019,37.731453,71
Western Plains Medical Complex,"3001 Avenue A, Dodge City, KS 67801",-100.01712516725948,37.78639065,60
Baptist Health Corbin,"1 Trillium Way, Corbin, KY 40701",-84.12024942281482,36.92258385,268
Baptist Health LaGrange,"1025 New Moody Ln, La Grange, KY 40031",-85.37625552406134,38.3948546,120
Baptist Health Lexington,"1740 Nicholasville Rd, Lexington, KY 40503",-84.51235422426745,38.01869995,391
Baptist Health Louisville,"4000 Kresge Way, Louisville, KY 40207",,,519
Baptist Health Madisonville,"900 Hospital Dr, Madisonville, KY 42431",-87.49387356902598,37.34058845,173
Baptist Health Paducah,"2501 Kentucky Ave, Paducah, KY 42003",-88.62769387563067,37.07348785000001,271
Baptist Health Richmond,"801 Eastern Bypass, Richmond, KY 40475",-84.29174187900284,37.7307116,60
Bourbon Community Hospital,"9 Linville Dr, Paris, KY 40361",-84.23762077630587,38.22114315,58
CHI Saint Joseph Health East,"150 N Eagle Creek Dr, Lexington, KY 40509",-84.4395289193269,37.99940405,160
CHI Saint Joseph Health Hospital,,,,255
CHI Saint Joseph Health London,"1001 St Joseph Ln, London, KY 40741",,,106
Clark Regional Medical Center,"175 Hospital Dr, Winchester, KY 40391",-84.21644331949392,38.011421049999996,79
Ephraim McDowell Regional Medical Center,"217 S 3rd St, Danville, KY 40422",-84.77345753915282,37.643780899999996,222
Flaget Memorial Hospital,,,,52
Fleming County Hospital,"55 Foundation Dr, Flemingsburg, KY 41041",,,52
Frankfort Regional Medical Center,"299 Kings Daughters Dr, Frankfort, KY 40601",-84.90717692161739,38.1599796,128
Georgetown Community Hospital,"1140 Lexington Rd, Georgetown, KY 40324",-84.56064610476228,38.1866079,75
Hardin Memorial Hospital,"913 N Dixie Hwy, Elizabethtown, KY 42701",,,300
Harlan ARH Hospital,"81 Ball Park Rd, Harlan, KY 40831",-82.885421,36.953786,111
Harrison Memorial Hospital,"1210 KY-36, Cynthiana, KY 41031",-84.31455777184954,38.40367606740363,61
Hazard ARH Regional Medical Center,"100 Medical Center Dr, Hazard, KY 41701",-83.22816749486378,37.277474100000006,349
Highlands ARH Regional Medical Center,"5000 KY-321, Prestonsburg, KY 41653",-82.76830812909793,37.728760949999995,150
Jackson Purchase Medical Center,"1099 Medical Center Dr, Mayfield, KY 42066",-88.651122,36.75733,107
Jennie Stuart Medical Center,,,,133
King's Daughters Medical Center,,,,486
Lake Cumberland Regional Hospital,"305 Langdon St, Somerset, KY 42503",-84.613164,37.084267,267
Logan Memorial Hospital,"1625 Nashville St, Russellville, KY 42276",-86.88155905068521,36.8162439,75
Meadowview Regional Medical Center,"989 Medical Park Dr, Maysville, KY 41056",-83.80889753648785,38.64024635,100
Mercy Health-Lourdes Hospital,"1530 Lone Oak Rd, Paducah, KY 42003",-88.64732922294922,37.05001525,306
Methodist Health Henderson County Campus,"1305 N Elm St, Henderson, KY 42420",-87.58283085205359,37.8546736,118
Murray-Calloway County Hospital,"803 Poplar St, Murray, KY 42071",-88.3102205529778,36.60722775,277
Norton Hospital,"200 E Chestnut St, Louisville, KY 40202",-85.75065853999602,38.2478501,"1,430"
Our Lady of Bellefonte Hospital,"1000 St Christopher Dr, Ashland, KY 41101",,,151
Owensboro Health Muhlenberg Community Hospital,"440 Hopkinsville St, Greenville, KY 42345",-87.18959272908674,37.1963604,90
Owensboro Health Regional Hospital,"1201 Pleasant Valley Rd, Owensboro, KY 42303",-87.06479072968646,37.7792075,477
Paul B. Hall Regional Medical Center,"625 James S Trimble Blvd, Paintsville, KY 41240",-82.81289183926569,37.815610050000004,72
Pikeville Medical Center,"911 S Bypass Rd, Pikeville, KY 41501",-82.5144696,37.480344,294
Pineville Community Hospital,"850 Riverview Ave, Pineville, KY 40977",-83.70825381134308,36.763050899999996,53
Rockcastle Regional Hospital,"145 Newcomb Ave, Mt Vernon, KY 40456",-84.33595508928572,37.3576477,147
Saint Claire Regional Medical Center,"222 Medical Cir, Morehead, KY 40351",-83.44192177726543,38.18032395,127
Saint Elizabeth Edgewood,"1 Medical Village Dr, Edgewood, KY 41017",-84.56238394583889,39.01138805,459
Saint Elizabeth Florence,"4900 Houston Rd, Florence, KY 41042",-84.63032806319467,39.016038800000004,142
Saint Elizabeth Fort Thomas,"85 N Grand Ave, Fort Thomas, KY 41075",-84.4668956281206,39.07870495,149
Spring View Hospital,"320 Loretto Rd, Lebanon, KY 40033",-85.26163149148414,37.5695246,75
T. J. Samson Community Hospital,"1301 N Race St, Glasgow, KY 42141",-85.9049433156728,37.011302650000005,124
T.J. Health Columbia,"901 Westlake Dr, Columbia, KY 42728",-85.29462947652976,37.096722400000004,69
Taylor Regional Hospital,"1700 Old Lebanon Rd, Campbellsville, KY 42718",-85.33695272021647,37.36658575,90
The Medical Center at Bowling Green,"250 Park St, Bowling Green, KY 42101",-86.42929037941177,36.9957692,316
Three Rivers Medical Center,"2485 KY-644, Louisa, KY 41230",-82.600977,38.091418,84
TriStar Greenview Regional Hospital,"1801 Ashley Cir, Bowling Green, KY 42104",-86.4364619,36.9664485,162
Tug Valley ARH Regional Medical Center,"260 Hospital Dr, South Williamson, KY 41503",,,123
Twin Lakes Regional Medical Center,"910 Wallace Ave, Leitchfield, KY 42754",-86.288810867326,37.47275525,75
UK Good Samaritan Hospital,"310 S Limestone, Lexington, KY 40508",-84.50046628592978,38.042197,224
University of Kentucky Albert B. Chandler Hospital,"800 Rose Street Pavilion H, Lexington, KY 40536",,,932
University of Louisville Hospital,,,,348
UofL Health - Jewish Hospital,"200 Abraham Flexner Way, Louisville, KY 40202",-85.7489155,38.2513027,821
UofL Health-Mary & Elizabeth Hospital,"1850 Bluegrass Ave, Louisville, KY 40215",-85.79404971116719,38.1781702,495
Whitesburg ARH Hospital,"240 Hospital Rd, Whitesburg, KY 41858",-82.81299369389916,37.11346275,90
Abbeville General Hospital,"118 N Hospital Dr, Abbeville, LA 70510",-92.1090136,29.9732613,60
Acadia General Hospital,"1305 Crowley Rayne Hwy, Crowley, LA 70526",-92.345808,30.230807,140
Acadian Medical Center,"3501 US-190, Eunice, LA 70535",-92.388764,30.494946,52
Baton Rouge General Bluebonnet Campus,"8585 Picardy Ave, Baton Rouge, LA 70809",-91.0949937580664,30.39429225,76
Baton Rouge General Mid City Campus,"3600 Florida Blvd, Baton Rouge, LA 70806",-91.15295626812036,30.449646700000002,365
Byrd Regional Hospital,"1020 Fertitta Blvd, Leesville, LA 71446",-93.26907826480036,31.138803000000003,52
CHRISTUS Highland Medical Center,,,,208
CHRISTUS Ochsner Lake Area Hospital,"4200 Nelson Rd, Lake Charles, LA 70605",-93.25075622215961,30.18075625,108
CHRISTUS Ochsner St. Patrick Hospital,"524 Dr Michael Debakey Dr, Lake Charles, LA 70601",,,148
CHRISTUS Saint Frances Cabrini Hospital,"3330 Masonic Dr, Alexandria, LA 71301",-92.46259379803126,31.282694,301
East Jefferson General Hospital,"4200 Houma Blvd, Metairie, LA 70006",-90.18109626848826,30.0131832,394
Glenwood Regional Medical Center,"503 McMillan Rd, West Monroe, LA 71291",-92.15608659090337,32.5124629,284
Iberia Medical Center,"2315 E Main St, New Iberia, LA 70560",-91.78606960117901,29.99012745,125
Lafayette General Medical Center,"1214 Coolidge St, Lafayette, LA 70503",-92.01943869976498,30.202767549999997,399
Lake Charles Memorial Hospital,"1701 Oak Park Blvd, Lake Charles, LA 70601",-93.19808939606935,30.20421415,374
Lakeview Regional Medical Center,"95 Judge Tanner Blvd, Covington, LA 70433",,,168
Lane Regional Medical Center,"6300 Main St, Zachary, LA 70791",-91.13762617812534,30.6490973,182
Leonard J. Chabert Medical Center,"1978 Industrial Blvd, Houma, LA 70363",-90.68823189543734,29.56978545,90
Mercy Regional Medical Center,"3700 Kolbe Rd, Lorain, OH 44053",-82.23751334034267,41.4366447,109
Minden Medical Center,"1 Medical Plaza Pl, Minden, LA 71055",-93.28685536846207,32.6173867,157
Natchitoches Regional Medical Center,"501 Keyser Ave, Natchitoches, LA 71457",-93.07797098698461,31.7524891,208
North Oaks Medical Center,"15790 N Oaks Dr Drive, Hammond, LA 70403",-90.46209399987596,30.46538911683666,344
Northern Louisiana Medical Center,"401 E Vaughn Ave, Ruston, LA 71270",-92.63366442464546,32.5168842,157
Ochsner Baptist - A Campus of Ochsner Medical Center,"2700 Napoleon Ave, New Orleans, LA 70115",-90.10443625871251,29.9375381,83
Ochsner LSU Health Shreveport - Academic Medical Center,"1541 Kings Hwy, Shreveport, LA 71103",-93.76078556437238,32.48114905,406
Ochsner LSU Health Shreveport - Monroe Medical Center,"1541 Kings Hwy, Shreveport, LA 71103",-93.76078556437238,32.48114905,119
Ochsner Medical Center,"Jefferson, Louisiana, United States",-90.1293894,29.8502657,"1,017"
Ochsner Medical Center - Baton Rouge,"17000 Medical Center Dr, Baton Rouge, LA 70816",-91.00112182810992,30.442105249999997,161
Ochsner Medical Center - Kenner,"200 W Esplanade Ave, Kenner, LA 70065",-90.2497417,30.0203765,115
Ochsner Medical Center - North Shore,"100 Medical Center Dr, Slidell, LA 70461",-89.74213092134335,30.287135,168
Ochsner Medical Center - West Bank,"2500 Belle Chasse Hwy, Gretna, LA 70056",-90.047996,29.901361,180
Ochsner St. Mary,"1125 Marguerite St, Morgan City, LA 70380",-91.20093572063564,29.70862435,157
Opelousas General Main Campus,"539 E Prudhomme St, Opelousas, LA 70570",,,197
Opelousas General South Campus,"3975 Interstate 49 South Service Rd #232, Opelousas, LA 70570",,,171
Our Lady of Lourdes Regional Medical Center,"4801 Ambassador Caffery Pkwy, Lafayette, LA 70508",-92.0368637,30.1507998,347
Our Lady of Lourdes Women's and Children's Hospital,"4600 Ambassador Caffery Pkwy, Lafayette, LA 70508",-92.04584902215505,30.152025199999997,161
Our Lady of the Lake Ascension,"1125 Louisiana 30 W, Gonzales, LA 70737",,,78
Our Lady of the Lake Regional Medical Center,"5000 Hennessy Blvd, Baton Rouge, LA 70808",-91.1063641,30.4019593,876
Rapides Regional Medical Center,"211 4th St, Alexandria, LA 71301",-92.44979328481406,31.31446655,357
Saint Charles Parish Hospital,"1057 Paul Maillard Rd, Luling, LA 70070",-90.37080280445011,29.9241198,59
Saint Francis Medical Center - Downtown,,,,375
Saint Tammany Parish Hospital,"1202 S Tyler St, Covington, LA 70433",-90.11391088996095,30.4682646,200
Savoy Medical Center,"801 Poinciana Ave, Mamou, LA 70554",-92.41724592144067,30.64215705,176
Slidell Memorial Hospital,"1001 Gause Blvd, Slidell, LA 70458",-89.7702391863706,30.28367135,231
Springhill Medical Center,"3719 Dauphin St, Mobile, AL 36608",-88.13015691580881,30.6847189,58
Terrebonne General Medical Center,"8166 W Main St, Houma, LA 70360",-90.760072,29.636814,210
Thibodaux Regional Health System,"602 N Acadia Rd, Thibodaux, LA 70301",-90.80521499865377,29.780138200000003,160
Touro Infirmary,"1401 Foucher St, New Orleans, LA 70115",-90.09206596866655,29.9258607,325
Tulane Lakeside Hospital,"4700 S I-10 Service Rd W, Metairie, LA 70001",-90.18701466712237,29.99719815,126
Tulane Medical Center,"1415 Tulane Ave, New Orleans, LA 70112",-90.07629324778735,29.9558617,518
University Hospital and Clinics,"2390 W Congress St, Lafayette, LA 70506",-92.04670945813037,30.217215,52
University Medical Center New Orleans,"2000 Canal St, New Orleans, LA 70112",-90.08213114772948,29.959798550000002,324
Villa Feliciana Medical Complex,"Unnamed Road, Jackson, LA 70748",-85.236851,30.8299833,297
West Calcasieu Cameron Hospital,"701 Cypress St, Sulphur, LA 70663",-93.36892182165914,30.229690849999997,107
West Jefferson Medical Center,"1101 Medical Center Blvd, Marrero, LA 70072",-90.09446535139607,29.8917056,255
Willis-Knighton Bossier Health Center,"2400 Hospital Dr, Bossier City, LA 71111",-93.71799367288342,32.5587927,124
Willis-Knighton Medical Center,"2600 Greenwood Rd, Shreveport, LA 71103",-93.77870669427526,32.48491885,799
Woman's Hospital,,,,228
Brockton Hospital,"680 Centre St, Brockton, MA 02302",-70.9910738855076,42.0872752,197
AdCare Hospital,"107 Lincoln St, Worcester, MA 01605",-71.79469158738553,42.276415099999994,114
Addison Gilbert Hospital,"298 Washington St, Gloucester, MA 01930",-70.6819300361943,42.6246771,79
Anna Jaques Hospital,"25 Highland Ave, Newburyport, MA 01950",-70.89091645747592,42.81369325,140
Baystate Franklin Medical Center,"164 High St, Greenfield, MA 01301",-72.59288632376354,42.595268700000005,89
Baystate Medical Center,"759 Chestnut St, Springfield, MA 01199",-72.60300615153007,42.121522049999996,724
Baystate Noble Hospital,"115 W Silver St, Westfield, MA 01085",-72.75935246865802,42.1178811,97
Baystate Wing Hospital,"40 Wright St, Palmer, MA 01069",-72.34120457065711,42.16934095,74
Berkshire Medical Center,"725 North St, Pittsfield, MA 01201",-73.2492795834909,42.4600752,275
Beth Israel Deaconess Hospital Milton,"199 Reedsdale Rd, Milton, MA 02186",-71.0768393856917,42.251368299999996,102
Beth Israel Deaconess Hospital Needham,"148 Chestnut St, Needham, MA 02492",-71.23665362814043,42.27728075,58
Beth Israel Deaconess Hospital-Plymouth,"275 Sandwich St, Plymouth, MA 02360",-70.6455366462985,41.94186605,164
Beth Israel Deaconess Medical Center,"330 Brookline Ave, Boston, MA 02215",-71.10492182209876,42.3397554,704
Beverly Hospital,"85 Herrick St, Beverly, MA 01915",-70.8751357650672,42.56415055,364
Boston Medical Center,"One Boston Medical Center Pl, Boston, MA 02118",,,432
Brigham and Women's Faulkner Hospital,"1153 Centre St, Boston, MA 02130",-71.12855793387442,42.3017598,171
Brigham and Women's Hospital,"75 Francis St, Boston, MA 02115",-71.1060436296658,42.335679999999996,804
Cape Cod Hospital,"27 Park St, Hyannis, MA 02601",-70.2733113364564,41.6538068,259
Carney Hospital,"2100 Dorchester Ave, Dorchester, MA 02124",-71.0583779,42.3076775,126
CHA Cambridge Hospital,"1493 Cambridge St, Cambridge, MA 02139",-71.10477268958375,42.3751731,262
Charlton Memorial Hospital,"363 Highland Ave, Fall River, MA 02720",-71.1460783680883,41.7093779,867
Cooley Dickinson Hospital,"30 Locust St, Northampton, MA 01060",-72.6532651,42.3301763,140
Emerson Hospital,"133 Old Rd to 9 Acre Corner, Concord, MA 01742",,,160
Falmouth Hospital,"100 Ter Heun Dr, Falmouth, MA 02540",-70.62202929985716,41.5639445,95
Framingham Union Hospital,"115 Lincoln St, Framingham, MA 01702",-71.41911943738873,42.2850066,288
Good Samaritan Medical Center,"235 N Pearl St, Brockton, MA 02301",-71.0618812,42.0972167,265
Harrington Hospital,"100 South St, Southbridge, MA 01550",-72.04241448482102,42.07825955,119
Heywood Hospital,"242 Green St, Gardner, MA 01440",-71.98748072431209,42.58685735,134
Holy Family Hospital - Methuen,"70 East St, Methuen, MA 01844",-71.16833738237946,42.7285558,347
Holy Family Hospital -Haverhill,"2000 P St NW #310, Washington, DC 20036",,,122
Holyoke Medical Center,,,,185
Lahey Hospital and Medical Center Burlington,"41 Burlington Mall Road, Burlington, MA 01805",-71.2042248992141,42.48464385,345
Lawrence General Hospital,"1 General St, Lawrence, MA 01841",-71.15007700778098,42.7097143,189
Lawrence Memorial Hospital,"365 Montauk Ave, New London, CT 06320",-72.10437888210274,41.3362807,216
Lowell General Hospital - Main Campus,"295 Varnum Ave, Lowell, MA 01854",-71.342233668805,42.647802799999994,407
Lowell General Hospital - Saints Campus,"1 Hospital Dr, Lowell, MA 01852",-71.30008665422238,42.645351500000004,157
Massachusetts General Hospital,"55 Fruit St, Boston, MA 02114",-71.06873742261993,42.362917949999996,"1,011"
Mercy Medical Center,,,,317
Milford Regional Medical Center,"14 Prospect St, Milford, MA 01757",-71.52853411627517,42.1343351,145
Morton Hospital,"88 Washington St, Taunton, MA 02780",-71.09518121351795,41.9062805,112
Mount Auburn Hospital,"330 Mt Auburn St, Cambridge, MA 02138",-71.13417575971958,42.3741033,208
Nashoba Valley Medical Center,"200 Groton Rd, Ayer, MA 01432",-71.57414587343038,42.577352149999996,77
New England Baptist Hospital,"125 Parker Hill Ave, Boston, MA 02120",-71.10683775317085,42.329639650000004,98
Newton-Wellesley Hospital,"2014 Washington St, Newton, MA 02462",-71.24529407865509,42.3313754,286
Norwood Hospital,,,,210
NSMC Salem Hospital,"81 Highland Ave, Salem, MA 01970",-70.90516241826194,42.5112107,268
NSMC Union Hospital,"500 Lynnfield St, Lynn, MA 01904",-70.97963277711494,42.5010719,338
Saint Anne's Hospital,"795 Middle St, Fall River, MA 02721",-71.16345107025307,41.6924092,206
Saint Elizabeth's Medical Center,"736 Cambridge St, Brighton, MA 02135",-71.14750950942214,42.348461,274
Saint Vincent Hospital at Worcester Medical Center,"123 Summer St, Worcester, MA 01608",-71.79655403681465,42.26496835,272
South Shore Hospital,"55 Fogg Rd, South Weymouth, MA 02190",-70.95391432574807,42.17553705,392
Sturdy Memorial Hospital,"211 Park St, Attleboro, MA 02703",-71.27520930524133,41.9418741,131
Tufts Medical Center,"800 Washington St, Boston, MA 02111",-71.0634112,42.3495588,384
UMass Memorial HealthAlliance - Clinton Hospital - Leominster Campus,"60 Hospital Rd, Leominster, MA 01453",-71.763124839645,42.54031915,150
UMass Memorial Marlborough Hospital,"157 Union St, Marlborough, MA 01752",-71.55147,42.3548,67
UMass Memorial Medical Center - University Campus,,,,640
Winchester Hospital,"1840 Amherst St, Winchester, VA 22601",-78.18943473110079,39.19627145,205
Adventist HealthCare Shady Grove Medical Center,"9901 Medical Center Dr, Rockville, MD 20850",,,338
Adventist HealthCare Takoma Park,"7600 Carroll Ave #5200, Takoma Park, MD 20912",,,198
Anne Arundel Medical Center,"2001 Medical Pkwy, Annapolis, MD 21401",-76.53379530599089,38.990427499999996,379
CalvertHealth Medical Center,"100 Hospital Rd, Prince Frederick, MD 20678",-76.59615407150983,38.5598634,68
Carroll Hospital,"200 Memorial Ave, Westminster, MD 21157",-76.98979776855404,39.558666450000004,153
Doctors Community Hospital,"8118 Good Luck Rd, Lanham, MD 20706",-76.86550664764508,38.9821971,190
Frederick Memorial Hospital,,,,281
Grace Medical Center,,,,69
Greater Baltimore Medical Center,"6701 Charles St, Towson, MD 21204",-76.6261545,39.3935452,296
Holy Cross Germantown Hospital,"19801 Observation Dr, Germantown, MD 20876",-77.2428068191514,39.1820436,73
Holy Cross Hospital,"1500 Forest Glen Rd, Silver Spring, MD 20910",-77.027786,39.018295,441
Howard County General Hospital,"5755 Cedar Ln, Columbia, MD 21044",-76.88434658670393,39.213634400000004,245
Johns Hopkins Bayview Medical Center,"4940 Eastern Ave, Baltimore, MD 21224",-76.5490695530589,39.29121285,411
Johns Hopkins Suburban Hospital,"8600 Old Georgetown Rd, Bethesda, MD 20814",-77.10941111511528,38.997485084585804,233
Levindale Hebrew Geriatric Center and Hospital,"2434 W Belvedere Ave, Baltimore, MD 21215",-76.66539357378952,39.35412555,330
MedStar Franklin Square Medical Center,"9000 Franklin Square Dr, Baltimore, MD 21237",-76.47922352581156,39.351906299999996,347
Medstar Good Samaritan Hospital,"5601 Loch Raven Blvd, Baltimore, MD 21239",-76.58584727178213,39.3575548,201
MedStar Harbor Hospital,"3001 S Hanover St, Baltimore, MD 21225",-76.61404461186797,39.25184350000001,129
MedStar Montgomery Medical Center,"18101 Prince Philip Dr, Olney, MD 20832",-77.05472085149233,39.1535381,117
MedStar Saint Mary's Hospital,"25500 Point Lookout Rd, Leonardtown, MD 20650",-76.640485,38.299376,96
MedStar Southern Maryland Hospital,"7503 Surratts Rd, Clinton, MD 20735",-76.87571990076816,38.74841485,176
MedStar Union Memorial Hospital,"201 E University Pkwy, Baltimore, MD 21218",-76.61483659182073,39.3295258,185
Mercy Medical Center,,,,229
Meritus Medical Center,"11116 Medical Campus Rd, Hagerstown, MD 21742",,,254
Northwest Hospital,"5401 Old Court Rd, Randallstown, MD 21133",-76.78308166878239,39.35685855,228
Peninsula Regional Medical Center,"100 E Carroll St, Salisbury, MD 21801",-75.59908584295115,38.361208000000005,288
Saint Agnes Hospital,"900 S Caton Ave, Baltimore, MD 21229",-76.6734578765273,39.27154095,267
Sinai Hospital,"2401 W Belvedere Ave, Baltimore, MD 21215",-76.66228716247511,39.35289645,418
The Johns Hopkins Hospital,"1800 Orleans St, Baltimore, MD 21287",-76.59239403267401,39.296439199999995,"1,003"
UM Laurel Medical Center,"7300 Van Dusen Rd, Laurel, MD 20707",-76.88236751254982,39.085807599999995,124
Union Hospital,,,,96
University of Maryland Baltimore Washington Medical Center,"301 Hospital Dr, Glen Burnie, MD 21061",-76.61925295869148,39.1600144,272
University of Maryland Charles Regional Medical Center,"5 Garrett Ave, La Plata, MD 20646",-76.97245770035951,38.5292478,98
University of Maryland Harford Memorial Hospital,"501 S Union Ave, Havre De Grace, MD 21078",-76.0901349961068,39.542994750000005,82
University of Maryland Medical Center,"22 S Greene St, Baltimore, MD 21201",-76.62439437177966,39.28827365,829
University of Maryland Medical Center Midtown Campus,"827 Linden Ave, Baltimore, MD 21201",-76.62083822558472,39.29962875,177
University of Maryland Prince George's Hospital Center,"3001 Hospital Dr, Cheverly, MD 20785",-76.92108832458291,38.930707850000005,382
University of Maryland Rehabilitaion and Orthopaedic Insitute,,,,137
University of Maryland Saint Joseph Medical Center,"7601 Osler Dr, Towson, MD 21204",-76.61112257684786,39.387081300000006,238
University of Maryland Shore Medical Center at Dorchester,"300 Byrn St, Cambridge, MD 21613",-76.06672750081017,38.5717644,66
University of Maryland Shore Medical Center at Easton,"219 S Washington St, Easton, MD 21601",-76.07378,38.764411,162
University of Maryland Upper Chesapeake Medical Center,"500 Upper Chesapeake Dr, Bel Air, MD 21014",-76.34458953851649,39.51795285,149
UPMC Western Maryland,"12500 Willowbrook Rd, Cumberland, MD 21502",-78.7340081173343,39.6483657,213
Central Maine Medical Center,"300 Main St, Lewiston, ME 04240",-70.21469262327662,44.102599999999995,234
Maine Medical Center,,,,596
MaineGeneral Health,,,,192
Mid Coast Hospital,"123 Medical Center Dr, Brunswick, ME 04011",,,92
Northern Light AR Gould Hospital,"140 Academy St, Presque Isle, ME 04769",-67.99870162015863,46.67435485,118
Northern Light Eastern Maine Medical Center,"489 State St, Bangor, ME 04401",-68.75118548208786,44.8084356,349
Northern Light Mercy Hospital,"144 State St, Portland, ME 04101",-70.26479662666372,43.651276499999994,103
Northern Maine Medical Center,"194 E Main St, Fort Kent, ME 04743",-68.59248369199733,47.265346300000004,94
Pen Bay Medical Center,"6 Glen Cove Dr, Rockport, ME 04856",-69.08483889159231,44.1442885,165
Saint Joseph Hospital,,,,99
Saint Mary's Regional Medical Center,"1808 W Main St, Russellville, AR 72801",-93.14909972264508,35.28422475,381
SMHC Medical Center - Biddeford,"1 Medical Center Dr, Biddeford, ME 04005",-70.49016314708884,43.47674295,226
York Hospital,"1001 S George St, York, PA 17403",-76.7182406863968,39.94527035,66
Ascension Saint John Hospital,"22101 Moross Rd, Detroit, MI 48236",-82.91322986540166,42.41947195,612
Spectrum Health Zeeland Community Hospital,"8333 Felch St, Zeeland, MI 49464",-85.98744425047794,42.821976199999995,55
Ascension Borgess Hospital,"1521 Gull Rd, Kalamazoo, MI 49048",-85.55981793522058,42.30783985,371
Ascension Brighton Center for Recovery,"12851 Grand River Ave, Brighton, MI 48116",-83.755613,42.52019,99
Ascension Genesys Hospital,"1 Genesys Pkwy, Grand Blanc, MI 48439",,,370
Ascension Macomb - Oakland Hospital Warren Campus,"11800 Twelve Mile Rd, Warren, MI 48093",,,507
"Ascension Macomb-Oakland Hospital, Madison Heights Campus","27351 Dequindre Rd, Madison Heights, MI 48071",-83.08774088971828,42.49396645,159
"Ascension Providence Hospital, Southfield Campus","16001 W Nine Mile Rd, Southfield, MI 48075",,,583
Ascension Providence Rochester Hospital,"1101 W University Dr, Rochester, MI 48307",-83.14915981137986,42.67852115,224
Ascension River District Hospital,"4100 River Rd, East China, MI 48054",,,65
Ascension St. Mary's Hospital,"800 S Washington Ave, Saginaw, MI 48601",-83.9385503547201,43.42432605,204
"Beaumont Hospital, Dearborn","18101 Oakwood Blvd, Dearborn, MI 48124",-83.21473655701938,42.2901126,567
"Beaumont Hospital, Farmington Hills","28050 Grand River Ave, Farmington Hills, MI 48336",-83.32459688432317,42.44512185000001,301
"Beaumont Hospital, Grosse Pointe","468 Cadieux Rd, Grosse Pointe, MI 48230",-82.91382827966505,42.383509849999996,266
"Beaumont Hospital, Royal Oak","3601 W 13 Mile Rd, Royal Oak, MI 48073",-83.19290614191975,42.514257400000005,"1,089"
"Beaumont Hospital, Taylor","10000 Telegraph Rd, Taylor, MI 48180",-83.2765142986782,42.235226,180
"Beaumont Hospital, Trenton","5450 Fort St, Trenton, MI 48183",-83.1958164,42.1345887,193
"Beaumont Hospital, Troy","44201 Dequindre Rd, Troy, MI 48085",-83.0893426,42.5778576,520
"Beaumont Hospital, Wayne","33155 Annapolis St, Wayne, MI 48184",-83.36539640679564,42.2727852,170
Bronson Battle Creek,"300 North Ave, Battle Creek, MI 49017",-85.17814017704579,42.330877650000005,198
Bronson Methodist Hospital,"601 John St, Kalamazoo, MI 49007",-85.5801876393196,42.28656025,415
Covenant Medical Center Harrison,"1447 N Harrison St, Saginaw, MI 48602",-83.9566919306108,43.42847115,534
DMC Detroit Receiving Hospital,"4201 St Antoine, Detroit, MI 48201",,,214
DMC Harper University Hospital,"3990 John R St, Detroit, MI 48201",-83.0563402,42.3518979,368
DMC Huron Valley-Sinai Hospital,"1 William Carls Dr, Commerce Charter Twp, MI 48382",,,130
DMC Sinai-Grace Hospital,"6071 Outer Dr W, Detroit, MI 48235",,,390
Garden City Hospital,"6245 Inkster Rd, Garden City, MI 48135",-83.31398913773245,42.332312400000006,148
Healthsource Saginaw,"3340 Hospital Rd, Saginaw, MI 48603",-84.0501374,43.4548124,343
Henry Ford Allegiance Health Hospital,"205 N East Ave, Jackson, MI 49201",-84.19906134637353,42.250998319847966,353
Henry Ford Hospital,"2799 W Grand Blvd, Detroit, MI 48202",-83.08537549754047,42.36764305,685
Henry Ford Macomb Hospital - Clinton Township,"15855 19 Mile Rd, Clinton Twp, MI 48038",-82.96039543065,42.614754500000004,433
Henry Ford West Bloomfield Hospital,"6777 W Maple Rd, West Bloomfield Township, MI 48322",-83.40706780188023,42.53621075,191
Henry Ford Wyandotte Hospital,"2333 Biddle Ave, Wyandotte, MI 48192",-83.14730851218805,42.2101521,357
Hillsdale Hospital,"168 S Howell St, Hillsdale, MI 49242",-84.63272002920343,41.911707500000006,93
Holland Hospital,,,,189
Hurley Medical Center,"1 Hurley Plaza, Flint, MI 48503",,,418
Karmanos Cancer Institute,"4100 John R St, Detroit, MI 48201",-83.0567586,42.352332,123
Lake Huron Medical Center,"2601 Electric Ave, Port Huron, MI 48060",-82.43557679098836,42.956403300000005,164
"Lakeland Medical Center, Saint Joseph","1234 W Napier Ave, St Joseph, MI 49085",-86.4749252,42.0887045,290
McLaren Bay Region,"1900 Columbus Ave, Bay City, MI 48708",-83.86799849985599,43.5866454,340
McLaren Central Michigan,"1221 South Dr, Mt Pleasant, MI 48858",-84.7610493940332,43.6001636,83
McLaren Flint,"401 S Ballenger Hwy, Flint, MI 48532",-83.73261753291786,43.0138518,353
McLaren Greater Lansing,"401 W Greenlawn Ave, Lansing, MI 48910",-84.55475205203703,42.70385589999999,271
McLaren Lapeer Region,"1375 N Main St, Lapeer, MI 48446",-83.32069203774589,43.0625271,222
McLaren Macomb,"1000 Harrington St, Mt Clemens, MI 48043",-82.89800797208932,42.58781234999999,259
McLaren Northern Michigan,,,,202
McLaren Oakland,"50 N Perry St, Pontiac, MI 48342",-83.29149099457695,42.638462200000006,151
McLaren Port Huron Hospital,"1221 Pine Grove Ave, Port Huron, MI 48060",-82.42978253794331,42.9878542,186
McLaren Thumb Region,"1100 S Van Dyke Rd, Bad Axe, MI 48413",-83.03159166847732,43.80332009999999,58
Memorial Healthcare,"826 W King St, Owosso, MI 48867",-84.18057998325679,43.0061653,150
Mercy Health Hackley Campus,"1700 Clinton St, Muskegon, MI 49442",-86.243095,43.217713,375
Mercy Health Mercy Campus,,,,160
Mercy Health Saint Mary's,"200 Jefferson Ave SE, Grand Rapids, MI 49503",-85.66280337054312,42.95837285,303
Metro Health Hospital,,,,187
MidMichigan Medical Center - Alpena,,,,139
MidMichigan Medical Center - Gratiot,,,,97
MidMichigan Medical Center - Midland,,,,324
MidMichigan Medical Center-West Branch,,,,88
Munson Healthcare Grayling Hospital,"1100 Michigan Ave, Grayling, MI 49738",-84.709584,44.66521,88
Munson Medical Center,"1105 6th St, Traverse City, MI 49684",-85.7690878,44.649161,442
North Ottawa Community Hospital,"1309 Sheldon Rd, Grand Haven, MI 49417",-86.22915348808229,43.05107595,81
Oaklawn Hospital,"200 N Madison St, Marshall, MI 49068",-84.95696687840807,42.273672700000006,78
Otsego Memorial Hospital,"825 N Center Ave, Gaylord, MI 49735",-84.67552588026382,45.035297,80
Pontiac General Hospital,"461 W Huron St, Pontiac, MI 48341",-83.30879361292335,42.63406525,94
